id,name,totalTestCount,dailyTestCount,pass,attemptNum,isFirstAttempt,emergencyStop,reverseBayPark,forwardBayPark,parallelPark,reverseRight,anyManeuvre,latitude,longitude,addrLine1,addrLine2,addrLine3,addrLine4,addrLine5,postcode
2,Stoke-On-Trent (Cobridge),2504,11.6465,0.4018,2.3630,0.4609,0.2963,0.2324,0.2252,0.2248,0.3127,0.9952,53.0403,-2.1880,Driver and Vehicle Standards Agency,Driving Test Centre (Cobridge),"8 Elder Road, Cobridge, Stoke On Trent",,,ST6 2HE
3,Lichfield,4483,20.8512,0.4751,2.0763,0.4907,0.3417,0.2509,0.2436,0.2463,0.2543,0.9951,52.6820,-1.8334,Driver and Vehicle Standards Agency,Driving Test Centre Lichfield,Lower Sanford Street,Lichfield,,WS13 6RB
4,Oswestry,1009,4.6930,0.5342,1.8930,0.5481,0.3221,0.2775,0.2369,0.2428,0.2369,0.9941,52.8436,-3.0417,Driver and Vehicle Standards Agency,Driving Test Centre Oswestry,Mile Oak Industrial Estate Maesbury Road,Oswestry,,SY10 8HA
7,Telford,2769,12.8791,0.4507,2.2001,0.4428,0.3178,0.2506,0.2477,0.2420,0.2441,0.9845,52.7193,-2.4646,Driver and Vehicle Standards Agency,Driving Test Centre Telford,35 Horton Wood,Telford,,TF1 7FR
12,Cambridge (Brookmount Court),7244,33.6930,0.5184,2.0850,0.4861,0.2855,0.2798,0.2358,0.2334,0.2467,0.9957,52.2328,0.1358,Driver and Vehicle Standards Agency,Driving Test Centre Cambridge Brookmount Court,"Units A & B Brookmount Court, Kirkwood Road",Cambridge,,CB4 2QH
14,Clacton-on-Sea,1106,5.1442,0.5280,1.9087,0.5362,0.3291,0.2649,0.2170,0.2722,0.2441,0.9982,51.7984,1.1547,Driver and Vehicle Standards Agency,Driving Test Centre Clacton-on-Sea,103/105 Carnarvon Road,Clacton-on- Sea,,CO15 6QA
15,Colchester,5692,26.4744,0.4557,2.2073,0.4594,0.3139,0.3011,0.2198,0.2078,0.2674,0.9961,51.8721,0.9281,Driver and Vehicle Standards Agency,Driving Test Centre Colchester,Grange Way,Colchester,,CO2 8HF
17,Bishops Stortford,4488,20.8744,0.4871,2.1332,0.4721,0.3090,0.2763,0.2239,0.2351,0.2464,0.9817,51.8615,0.1643,Driver and Vehicle Standards Agency,Driving Test Centre Bishops Stortford,South Road,Bishops Stortford,,CM23 3JQ
18,Letchworth,3765,17.5116,0.5538,1.9578,0.5211,0.3139,0.2303,0.2308,0.2558,0.2688,0.9857,51.9782,-0.2147,Driver and Vehicle Standards Agency,Driving Test Centre Letchworth,Jackmans Place Letchworth Garden City,Letchworth,,SG6 1RF
19,Stevenage,2344,10.9023,0.4347,2.0845,0.4599,0.3042,0.1954,0.1647,0.2939,0.3400,0.9940,51.9108,-0.2085,Driver and Vehicle Standards Agency,Driving Test Centre Stevenage,3 Drapers Way,Stevenage,,SG1 3DT
20,Hereford,2110,9.8140,0.5701,1.8303,0.5445,0.3057,0.2498,0.2536,0.2436,0.2526,0.9995,52.0666,-2.7294,"1, Faraday Rd",Westfield Trading Estate,Hereford,Herefordshire,,HR4 9NS
22,Birmingham (Kings Heath),4204,19.5535,0.4446,2.4053,0.4346,0.3435,0.2348,0.2479,0.2533,0.2617,0.9976,52.4066,-1.8871,Driver and Vehicle Standards Agency,Driving Test Centre (Kings Heath),955 Alcester Road South,Birmingham,,B14 5JA
24,Dudley,6718,31.2465,0.4299,2.1956,0.4695,0.3063,0.2584,0.2343,0.2478,0.2522,0.9927,52.5017,-2.1542,Driver and Vehicle Standards Agency,Driving Test Centre Dudley,Unit 2 Newton House,"The Pensnett Estate,Kingswinford",,DY6 7YE
25,Ludlow,2033,9.4558,0.6203,2.0113,0.5121,0.3271,0.2715,0.2410,0.2464,0.2410,1.0000,52.3654,-2.6931,Driver and Vehicle Standards Agency,"Unit 1, The Business Quarter",Eco Park Road,LUDLOW,,SY8 1FD
27,Redditch,3414,15.8791,0.4564,2.0709,0.4824,0.3207,0.2695,0.2276,0.2437,0.2542,0.9950,52.3085,-1.9470,Driver and Vehicle Standards Agency,Driving Test Centre Redditch,Elm Road,Redditch,,B97 6HJ
29,Wednesbury,4713,21.9209,0.3686,2.3906,0.4239,0.3212,0.2425,0.2415,0.2457,0.2663,0.9960,52.5549,-2.0124,Driver and Vehicle Standards Agency,Driving Test Centre Wednesbury,Knowles Street,Wednesbury,,WS10 9HN
30,Worcester,5666,26.3535,0.5056,2.0081,0.5025,0.3276,0.2732,0.2395,0.2390,0.2455,0.9972,52.2140,-2.1780,Driver and Vehicle Standards Agency,Driving Test Centre Worcester,Stanier Road,Warndon,,WR4 9FE
32,Birmingham (Kingstanding),7701,35.8186,0.4366,2.3861,0.4441,0.2800,0.2200,0.2427,0.2553,0.2722,0.9901,52.5439,-1.8905,Driver and Vehicle Standards Agency,Driving Test Centre (Kingstanding),"205 Birdbrook Road, Kingstanding",,,B44 9UL
34,Rugby,2625,12.2093,0.4659,1.9775,0.5265,0.3032,0.2743,0.2229,0.2480,0.2510,0.9962,52.3714,-1.2883,Driver and Vehicle Standards Agency,Driving Test Centre Rugby,"Aspect House, 66b Somers Road",Rugby,,CV22 7DH
35,Birmingham (Shirley),3873,18.0140,0.5239,2.1384,0.4818,0.3209,0.2443,0.2474,0.2468,0.2585,0.9969,52.4048,-1.8223,Driver and Vehicle Standards Agency,Driving Test Centre (Shirley),"401 Stratford Road, Shirley, Solihull",,,B90 4AA
38,Birmingham (South Yardley),5899,27.4372,0.4092,2.3928,0.4309,0.2548,0.2619,0.2338,0.2433,0.2563,0.9953,52.4540,-1.8101,Driver and Vehicle Standards Agency,Driving Test Centre (South Yardley),"Clay Lane, South Yardley",,,B26 1EA
40,Luton,7168,33.3395,0.3892,2.2017,0.4717,0.2365,0.2298,0.1963,0.2326,0.3334,0.9920,51.8777,-0.4202,Driver and Vehicle Standards Agency,Driving Test Centre Luton,6-10 Adelaide Street,Luton,,LU1 5BT
41,St Albans,3306,15.3767,0.4313,2.0850,0.4749,0.3603,0.2235,0.2126,0.2874,0.2737,0.9973,51.7527,-0.3350,Driver and Vehicle Standards Agency,Driving Test Centre St Albans,Beauver House 6 Bricket Road,St Albans,,AL1 3JX
42,Aylesbury,3030,14.0930,0.4422,1.9620,0.5125,0.3139,0.2353,0.2284,0.2782,0.2531,0.9950,51.8218,-0.8422,Driver and Vehicle Standards Agency,Unit 9 Ground Floor,Bell Business Park,Aylesbury Buckinghamshire,,HP19 8JR
43,Banbury,3440,16.0000,0.4058,2.0971,0.4672,0.3288,0.2436,0.2209,0.2419,0.2878,0.9942,52.0593,-1.3426,Driver and Vehicle Standards Agency,Driving Test Centre Banbury,Room 8,"Mewburn Road, Banbury",,OX16 9PG
44,Bletchley,3878,18.0372,0.4719,2.0869,0.4861,0.3035,0.2524,0.2354,0.2550,0.2514,0.9943,51.9939,-0.7424,Driver and Vehicle Standards Agency,Driving Test Centre Bletchley,"Block 4 Government Buildings, Wilton Hostel","Wilton Avenue, Bletchley",,MK3 6DH
47,Oxford (Cowley),4644,21.6000,0.4363,1.8794,0.5467,0.3284,0.2552,0.2459,0.2562,0.2392,0.9966,51.7272,-1.2249,Driver and Vehicle Standards Agency,Driving Test Centre Oxford (Cowley),James Wolfe Road,Cowley,,OX4 2PY
48,Boston,2787,12.9628,0.5185,1.9652,0.5002,0.3014,0.2580,0.2361,0.2591,0.2451,0.9982,52.9697,-0.0306,Driver and Vehicle Standards Agency,Driving Test Centre Boston,Redstone Industrial Estate,"Unit 2 Plot 3, Boston",,PE21 8AL
53,Skegness,771,3.5860,0.6044,1.8586,0.5603,0.2996,0.2633,0.2594,0.2088,0.2672,0.9987,53.1425,0.3252,Driver and Vehicle Standards Agency,Driving Test Centre Skegness,"Unit 3, Beaubridge Business Park",Heath Road,,PE25 3ST
56,Chesterfield,2529,11.7628,0.4923,2.1396,0.4642,0.3187,0.2827,0.2274,0.2376,0.2467,0.9945,53.2435,-1.4264,Driver and Vehicle Standards Agency,Driving Test Centre Chesterfield,Bus Garage Approach Road,Stonegravels,,S41 7LT
62,Worksop,3154,14.6698,0.5904,1.9106,0.5396,0.3301,0.2470,0.2451,0.2441,0.2616,0.9978,53.3231,-1.1593,Driving Test Centre Worksop,"Unit 4, The Point",Coach Road,Shireoaks,,S81 8BW
64,Stoke-on-Trent (Newcastle-Under-Lyme),3183,14.8047,0.4405,2.3629,0.4326,0.2981,0.2683,0.2369,0.2438,0.2469,0.9959,52.9965,-2.2119,Driver and Vehicle Standards Agency,Driving Test Centre Newcastle-Under-Lyme,"Lyme Drive, Parklands","Clayton Lane, Trent Vale",,ST4 6PQ
65,Hinckley,1437,6.6837,0.5233,1.9506,0.5324,0.3876,0.2310,0.2450,0.2401,0.2832,0.9993,52.5339,-1.3703,Driver and Vehicle Standards Agency,Driving Test Centre Hinckley,33 Brookside,Hinckley,,LE10 2TG
69,Leicester (Wigston),7869,36.6000,0.4522,2.2539,0.4473,0.3359,0.2490,0.2421,0.2514,0.2553,0.9977,52.5840,-1.1412,Driver and Vehicle Standards Agency,Driving Test Centre Leicester (Wigston),Tigers Road off Saffron Road,South Wigston,,LE18 4WS
70,Loughborough,2859,13.2977,0.4204,2.0794,0.4823,0.3309,0.2623,0.2368,0.2483,0.2466,0.9941,52.7807,-1.2009,Loughborough Driving Test Centre,Ark Business Centre,Gordon Road,Loughborough,,LE11 1JP
71,Melton Mowbray,1395,6.4884,0.6079,1.8695,0.5534,0.3176,0.2652,0.2351,0.2538,0.2444,0.9986,52.7695,-0.8933,Melton Mowbray Driving Test Centre,Phoenix House,Nottingham Road,Melton Mowbray,,LE13 0UL
72,Northampton,6633,30.8512,0.5037,2.0211,0.5129,0.3146,0.2640,0.2308,0.2439,0.2509,0.9896,52.2529,-0.9135,Driver and Vehicle Standards Agency,Driving Test Centre Northampton,Gladstone Business Centre,Gladstone Road,,NN5 7QA
74,Nuneaton,3586,16.6791,0.5215,2.1288,0.5020,0.3327,0.2493,0.2487,0.2501,0.2504,0.9986,52.5246,-1.4884,Driver and Vehicle Standards Agency,Driving Test Centre Nuneaton,54 Vernons Lane Stockingford,Nuneaton,,CV10 8AA
75,Bury St Edmunds,4797,22.3116,0.4394,2.1474,0.4576,0.3329,0.2593,0.2331,0.2404,0.2449,0.9777,52.2483,0.7110,Driver and Vehicle Standards Agency,Driving Test Centre Bury St Edmunds,Tritron House,St Andrews Street North,,IP33 1TJ
76,Ipswich,5249,24.4140,0.6081,1.7979,0.5694,0.3060,0.2795,0.2301,0.2397,0.2467,0.9960,52.0293,1.2111,Driver and Vehicle Standards Agency,Driving Test Centre Ipswich MPTC,Wentworth Road Ransomes Europark,Ipswich,,IP3 9SW
78,Lowestoft(Mobbs Way),3035,14.1163,0.4689,2.1733,0.4501,0.3377,0.2745,0.2306,0.2329,0.2511,0.9891,52.4766,1.7495,Driver and Vehicle Standards Agency,Driving Test Centre Lowestoft (Mobbs Way),Unit3 Oakland House Business Centre,"Mobbs Way, Oulton Broad, Lowestoft",,NR32 3AL
81,Watnall,1647,7.6605,0.5191,2.1785,0.4706,0.3048,0.2829,0.2271,0.2435,0.2386,0.9921,53.0065,-1.2512,Driver and Vehicle Standards Agency,Driving Test Centre Watnall LGV,Main Road,Watnall,,NG16 1JF
88,Featherstone,7173,33.3628,0.3343,2.6601,0.3607,0.3434,0.2430,0.2480,0.2536,0.2462,0.9908,52.6405,-2.1138,Driver and Vehicle Standards Agency,Driving Test Centre Featherstone LGV,"Cat & Kitten Lane,",Featherstone,,WV10 7JD
90,Norwich (Jupiter Road),3036,14.1209,0.4200,2.2464,0.4216,0.2803,0.2777,0.2388,0.2227,0.2546,0.9937,52.6598,1.2806,Driver and Vehicle Standards Agency,Driving Test Centre (Jupiter Road),"Jupiter Road, Hellesdon",Norwich,,NR6 6SS
91,Chelmsford (Hanbury Road),7289,33.9023,0.4935,2.0886,0.4821,0.2884,0.2571,0.2310,0.2461,0.2587,0.9930,51.7249,0.4466,Driver and Vehicle Standards Agency,Driving Test Centre Chelmsford LGV,"15 Hanbury Road, Widford Industrial Estate",Chelmsford,,CM1 3DR
92,Culham LGV,89,0.4140,0.5169,2.6067,0.3596,0.3483,0.2809,0.1124,0.3371,0.2584,0.9888,51.6611,-1.1972,Driver and Vehicle Standards Agency,Driving Test Centre Culham LGV,Culham No 1 Site,Abingdon,,OX14 3DA
93,Leighton Buzzard (Stanbridge Road),3541,16.4698,0.4874,2.0729,0.4801,0.2259,0.3033,0.1644,0.1872,0.3397,0.9946,51.9118,-0.6308,Driver and Vehicle Standards Agency,Driving Test Centre Leighton Buzzard LGV,"Leighton Road, Stanbridge",Leighton Buzzard,,LU7 4QG
94,Ashford (Kent),2499,11.6233,0.4998,1.8780,0.5526,0.3293,0.2549,0.2405,0.2461,0.2485,0.9900,51.1465,0.8783,Driver and Vehicle Standards Agency,Driving Test Centre Ashford (Kent),"Ground Floor, Civic Centre,","Tannery Lane, Ashford",,TN23 1PL
96,Barking (Tanner Street),3558,16.5488,0.4028,2.3370,0.4146,0.2704,0.0998,0.1178,0.3803,0.3999,0.9978,51.5431,0.0781,Driver and Vehicle Standards Agency,Driving Test Centre Barking,84 Tanner Street,Barking,,IG11 8QF
97,Barnet (London),5491,25.5395,0.4875,2.1504,0.4821,0.3092,0.2406,0.2276,0.2608,0.2693,0.9984,51.6460,-0.1870,Driver and Vehicle Standards Agency,Driving Test Centre Barnet,Raydean House,15-17 Western Parade,,EN5 1AD
98,Belvedere (London),1879,8.7395,0.3443,2.3220,0.4258,0.3300,0.2395,0.2448,0.2549,0.2581,0.9973,51.4836,0.1421,Driver and Vehicle Standards Agency,Driving Test Centre Belvedere,33 Woolwich Road,Belvedere,,DA17 5EE
100,Brentwood (London),2560,11.9070,0.5070,2.1699,0.4613,0.3336,0.2492,0.2406,0.2422,0.2633,0.9953,51.6105,0.2969,Driver and Vehicle Standards Agency,Driving Test Centre Brentwood,89 Warley Hill,Brentwood,,CM14 5JN
103,Canterbury,2098,9.7581,0.5143,2.0329,0.5248,0.1973,0.2636,0.1702,0.2173,0.3155,0.9666,51.2748,1.0884,Driver and Vehicle Standards Agency,Driving Test Centre Canterbury,25 New Dover Road,Canterbury,,CT1 3AS
104,Chichester,4163,19.3628,0.6442,1.8035,0.5664,0.3538,0.2861,0.2140,0.2059,0.2921,0.9981,50.8530,-0.7110,Driver and Vehicle Standards Agency,Driving Test Centre Chichester,"York House, City Fields Business Park","City Fields Way, Tangmere",,PO20 2FR
105,Chingford (London),7773,36.1535,0.3718,2.3291,0.4337,0.3299,0.2520,0.2316,0.2552,0.2573,0.9961,51.6335,0.0090,Driving Test Centre Chingford,Doric House,"128 Station Road, Chingford",,,E4 6AD
106,Crawley,3942,18.3349,0.3856,2.2831,0.4465,0.3239,0.2613,0.2428,0.2423,0.2451,0.9914,51.0810,-0.2018,Driver and Vehicle Standards Agency,Driving Test Centre Crawley,"Unit 2 The Pavilions, Brighton Road,","Pease Pottage, Crawley",,RH11 9BJ
108,Eastbourne,3786,17.6093,0.4913,1.8666,0.5272,0.3354,0.2668,0.2219,0.2459,0.2573,0.9918,50.7825,0.3096,Driver and Vehicle Standards Agency,Driving Test Centre Eastbourne,"1 Coastguard Cottages, 84 Wartling Road",Eastbourne,,BN22 7PT
109,Folkestone,1879,8.7395,0.4167,2.0080,0.4902,0.3145,0.2432,0.2485,0.2544,0.2496,0.9957,51.0791,1.1675,Driver and Vehicle Standards Agency,Driving Test Centre Folkestone,"Palting House, Patling Way, Trinity Road",Folkestone,,CT20 2TS
112,Tilbury,2298,10.6884,0.4991,2.0831,0.4848,0.3255,0.2537,0.2280,0.2550,0.2615,0.9983,51.4643,0.3514,Driver and Vehicle Standards Agency,Driving Test Centre Tilbury,"Montana House, Russell Road",Tilbury,,RM18 7AE
113,Greenford (Horsenden Lane),4146,19.2837,0.4067,2.2492,0.4549,0.3160,0.2434,0.2417,0.2518,0.2583,0.9952,51.5503,-0.3310,Driver and Vehicle Standards Agency,Driving Test Centre,"96 Horsenden Lane North, Greenford",,,UB6 7QH
115,Guildford,3567,16.5907,0.4544,2.1208,0.4693,0.2815,0.2590,0.2431,0.2461,0.2447,0.9930,51.2594,-0.5649,Driver and Vehicle Standards Agency,Driving Test Centre Guildford L   LGV,Slyfield Industrial Estate off Moorfield Road,Guildford,,GU1 1SA
120,Hither Green (London),2419,11.2512,0.5353,2.1137,0.4952,0.3162,0.3142,0.0699,0.2997,0.3113,0.9950,51.4533,-0.0051,Driver and Vehicle Standards Agency,Driving Test Centre Hither Green,42-44 Ennersdale Road,Hither Green,,SE13 6JD
121,Hornchurch (London),3567,16.5907,0.5304,2.0650,0.4993,0.3129,0.2498,0.2338,0.2632,0.2484,0.9952,51.5593,0.2209,Driver and Vehicle Standards Agency,Driving Test Centre Hornchurch,75 Station Lane,Hornchurch,,RM12 6JX
124,Isleworth (Fleming Way),6391,29.7256,0.5264,2.1338,0.4699,0.3292,0.2663,0.2527,0.2396,0.2372,0.9958,51.4663,-0.3372,Driver and Vehicle Standards Agency,Driving Test Centre Isleworth,"The Wireless Factory, Fleming Way",Isleworth,,TW7 6DB
125,Loughton (London),2449,11.3907,0.4496,2.3475,0.4385,0.3185,0.2552,0.2315,0.2466,0.2634,0.9967,51.6496,0.0565,Driver and Vehicle Standards Agency,Driving Test Centre Loughton,"Crown Buildings, 284 High Road","Loughton, Essex",,IG10 1RB
126,Maidstone,2399,11.1581,0.5244,1.9004,0.5594,0.3139,0.2647,0.2326,0.2343,0.2643,0.9958,51.2608,0.5258,Driver and Vehicle Standards Agency,Driving Test Centre Maidstone,"Unit 1 North Court, South Park Business Village","Armstrong Rd, Maidstone, Kent",,ME15 6JZ
127,Mill Hill (London),5919,27.5302,0.4467,2.1644,0.4758,0.2962,0.2536,0.2320,0.2455,0.2652,0.9963,51.6103,-0.2470,Driver and Vehicle Standards Agency,Driving Test Centre Mill Hill,"Unit 9, Grannard Business Centre","Bunns Lane, Mill Hill",,NW7 2DQ
128,Morden (London),8992,41.8233,0.4647,2.0444,0.4924,0.3365,0.1857,0.2056,0.3027,0.3018,0.9959,51.3866,-0.2125,Driver and Vehicle Standards Agency,Driving Test Centre Morden,10 Tudor Drive,Morden,,SM4 4PE
131,Pinner (London),8475,39.4186,0.5114,2.0730,0.4873,0.3284,0.2526,0.2429,0.2499,0.2525,0.9980,51.5968,-0.3997,Driver and Vehicle Standards Agency,Driving Test Centre Pinner,221 Tolcarne Drive,Pinner,,HA5 2DZ
132,Redhill Aerodrome,3115,14.4884,0.4918,2.0594,0.4748,0.3255,0.2687,0.2324,0.2491,0.2437,0.9939,51.2166,-0.1448,Driver and Vehicle Standards Agency,Driving Test Centre Redhill,"First Floor, Redhill Aerodrome Business Centre","Kings Mill Lane, Redhill",,RH1 5JZ
133,Sevenoaks,2794,12.9953,0.4968,1.9835,0.5032,0.3218,0.2037,0.2173,0.2480,0.3218,0.9907,51.2722,0.1887,Driver and Vehicle Standards Agency,Driving Test Centre Sevenoaks,45 Argyle Road,Sevenoaks,,TN13 1HJ
134,Sidcup (London),6172,28.7070,0.5823,2.0457,0.5018,0.3219,0.2361,0.2199,0.2528,0.2855,0.9942,51.4195,0.1224,Driver and Vehicle Standards Agency,Driving Test Centre Sidcup,"2 Crayside, Five Arches Business Estate,","Maidstone Road, Sidcup",,DA14 5AG
140,Tunbridge Wells,2019,9.3907,0.6112,1.8692,0.5389,0.3338,0.2377,0.2323,0.2516,0.2719,0.9936,51.1364,0.2641,Driver and Vehicle Standards Agency,Driving Test Centre Tunbridge Wells,8 Upper Grosvenor Road,Tunbridge Wells,,TN1 2ES
143,Wanstead (London),5050,23.4884,0.4095,2.3133,0.4232,0.3440,0.1137,0.2715,0.3020,0.3097,0.9968,51.5805,0.0238,Driver and Vehicle Standards Agency,Driving Test Centre Wanstead,"2 Devon House, Hermon Hill",Wanstead,,E11 2AW
145,West Wickham (London),6117,28.4512,0.4828,2.1854,0.4532,0.3252,0.2187,0.2148,0.2766,0.2841,0.9943,51.3751,-0.0114,Driver and Vehicle Standards Agency,Driving Test Centre West Wickham,56 Glebe Way,West Wickham,,BR4 0RL
148,Wood Green (London),7337,34.1256,0.4370,2.2561,0.4461,0.2864,0.2216,0.0065,0.3736,0.3969,0.9986,51.6017,-0.1149,Wood Green Crown Court,Lordship Lane,,LONDON,,N22 5LF
150,Alnwick,765,3.5581,0.5621,2.1856,0.4824,0.1882,0.1739,0.1542,0.3438,0.3229,0.9948,55.4119,-1.7075,Driver and Vehicle Standards Agency,Driving Test Centre Alnwick,"Roxburgh House, Green Batt",Alnwick,,NE66 1JX
151,Blyth,4541,21.1209,0.5107,2.2638,0.4796,0.2867,0.2127,0.2187,0.2592,0.3052,0.9958,55.1246,-1.5023,Driver & Vehicle Standards Agency,Driving Test Centre Blyth,"Unit 3 Sextant House, Freehold Street",BLYTH,,NE24 2BA
153,Hexham,638,2.9674,0.5940,1.7712,0.5627,0.3150,0.2508,0.2727,0.2179,0.2508,0.9922,54.9745,-2.1096,Driver and Vehicle Standards Agency,Driving Test Centre Hexham,St Andrews House,Haugh Lane,,NE46 3EW
157,Sunderland,6050,28.1395,0.4701,2.1403,0.4666,0.3478,0.2539,0.2374,0.2443,0.2562,0.9917,54.9212,-1.4262,Driver and Vehicle Standards Agency,Sunderland DTC,"Riverbank Road, North Hylton Industrial Estate",SUNDERLAND,,SR5 3JJ
158,Berwick-On-Tweed,404,1.8791,0.5396,1.7847,0.5495,0.3119,0.1856,0.2302,0.3045,0.2649,0.9851,55.7632,-2.0161,Driver and Vehicle Standards Agency,Driving Test Centre Berwick-On-Tweed,"Tweedside Industrial Estate, Northumberland Street",Berwick-On-Tweed,,TD15 2UY
159,Barrow In Furness,1008,4.6884,0.6746,1.6210,0.6409,0.2252,0.2817,0.2510,0.2381,0.2242,0.9950,54.1182,-3.2417,Driver and Vehicle Standards Agency,Driving Test Centre Barrow-In-Furness,Trinity Enterprise Centre,"Unit 11, Ironworks Road",,LA14 2PN
161,Blackpool,3835,17.8372,0.4344,2.1737,0.4524,0.3286,0.2334,0.2224,0.2295,0.3064,0.9917,53.8400,-3.0344,Norbreck Castle Hotel,Queens Promenade,Norbreck,BLACKPOOL,,FY2 9AA
163,Heysham,2239,10.4140,0.5574,1.9866,0.5181,0.2501,0.3667,0.1880,0.1715,0.2528,0.9790,54.0373,-2.9025,Driver and Vehicle Standards Agency,Driving Test Centre Heysham,Lancaster Training Services Ltd,"5 Penrod Way, Heysham",,LA3 2UZ
165,Nelson,3520,16.3721,0.4969,2.1349,0.4705,0.2724,0.2372,0.2355,0.2196,0.3026,0.9949,53.8331,-2.2183,Driver and Vehicle Srandards Agency,Driving Test Center Nelson,"Ground Floor Units 103,104, 105","Pendle Business Centre, Commercial Road",,BB9 9BT
166,Preston,6328,29.4326,0.5793,1.9189,0.5357,0.2540,0.2837,0.2342,0.2108,0.2685,0.9972,53.7609,-2.7502,Driver and Vehicle Standards Agency,Driving Test Centre Preston,Chain Caul Road,,,PR2 2PD
167,Workington,1610,7.4884,0.5621,1.8056,0.5447,0.3056,0.2497,0.2348,0.2186,0.2938,0.9969,54.6351,-3.5694,Workington Driving Test Centre,Moss Bay House 40 Peart Road,Derwent Howe Industrial Estate,Workington,,CA14 3YT
171,Barnsley,4023,18.7116,0.5590,2.0897,0.4847,0.3015,0.2886,0.2105,0.2180,0.2782,0.9953,53.5544,-1.5022,Driver and Vehicle Standards Agency,Driving Test Centre Barnsley,West Road,Barnsley,,S75 2DH
172,Middlesbrough,5612,26.1023,0.5098,2.0985,0.4973,0.2523,0.2678,0.2347,0.2327,0.2525,0.9877,54.5719,-1.1906,Driver and Vehicle Standards Agency,Driving Test Centre Middlesbrough,Maxwell Road,Middlesbrough,,TS3 8TE
173,Northallerton,1697,7.8930,0.4991,1.9258,0.5027,0.3412,0.2157,0.2316,0.2381,0.3088,0.9941,54.3403,-1.4324,Driver and Vehicle Standards Agency,Driving Test Centre Northallerton,Elder House East Road,Northallerton,,DL6 1NU
175,Bridlington,1691,7.8651,0.6115,1.8054,0.5606,0.3318,0.2460,0.2088,0.2584,0.2833,0.9965,54.0856,-0.2003,Driving Vehicle Standards Agency,Driving Test Centre Bridlington,Units 23 & 24 Enterprise Way,"Bessingby Industrial Estate, Bridlington",,YO16 4SF
178,Malton,313,1.4558,0.5783,1.6358,0.6358,0.3834,0.2173,0.2045,0.2780,0.2907,0.9904,54.1404,-0.7911,Driver and Vehicle Standards Agency,Driving Test Centre Malton,3 Milton Avenue,Malton,,YO17 7LB
179,Pontefract,3118,14.5023,0.4496,2.0494,0.4785,0.3169,0.2460,0.2207,0.2620,0.2704,0.9990,53.6919,-1.3035,Driver and Vehicle Standards Agency,Driving Test Centre Pontefract (Castleford),"7 Flemming Court, Whistler Drive",Castleford,,WF10 5HW
180,Scarborough,1639,7.6233,0.5174,2.0427,0.4869,0.2825,0.2691,0.1904,0.2282,0.2996,0.9872,54.2381,-0.4038,Driver and Vehicle Standards Agency,Driving Test Centre Scarborough,10/11 Falsgrave Resource Centre,Scarborough,,YO12 4DH
182,York,4468,20.7814,0.5251,2.0687,0.4895,0.2963,0.2478,0.2489,0.2415,0.2558,0.9940,53.9890,-1.0492,Driver and Vehicle Standards Agency,Driving Test Centre York,"Arabesque House (Unit 2), Monks Cross Drive","Huntington, York",,YO32 9GW
183,Bradford (Heaton),3889,18.0884,0.5382,1.9856,0.5248,0.2949,0.2597,0.2062,0.2600,0.2718,0.9977,53.8089,-1.7839,Driver and Vehicle Standards Agency,Driving Test Centre Bradford (Heaton),15 Farfield Street,Heaton,,BD9 5AS
184,Halifax,3518,16.3628,0.4318,2.2965,0.4281,0.2115,0.2982,0.2385,0.1961,0.2570,0.9898,53.7299,-1.8915,Driver and Vehicle Standards Agency,Driving Test Centre Halifax,"11 Cross Street West, Pellon",Halifax,,HX2 0HA
185,Horsforth,5767,26.8233,0.4997,2.2247,0.4741,0.3693,0.2322,0.2150,0.2715,0.2757,0.9945,53.8398,-1.6219,Driver and Vehicle Standards Agency,Driving Test Centre Horsforth,Room 013 Woodside House 261 Low Lane,Leeds,,LS18 5NY
186,Huddersfield,5033,23.4093,0.5059,2.1784,0.4562,0.3237,0.2597,0.2460,0.2398,0.2452,0.9907,53.6688,-1.7678,Driver and Vehicle Standards Agency,"The Chestnut Centre, 2A Chestnut Street",Sheepridge,Huddersfield,,HD2 1HJ
187,Skipton,1651,7.6791,0.5124,1.9049,0.5167,0.3404,0.2483,0.2471,0.2508,0.2514,0.9976,53.9536,-2.0230,Driver and Vehicle Standards Agency,Driving Test Centre Skipton,Foundry House Carleton Road,Skipton,,BD23 2BE
189,Whitby,331,1.5395,0.5831,1.9607,0.4804,0.2991,0.1692,0.1450,0.2931,0.3867,0.9940,54.4826,-0.6083,Driver and Vehicle Standards Agency,Driving Test Centre Whitby,Unit F11,St Hilda's Business Centre,,YO22 4ET
190,Doncaster,4239,19.7163,0.4164,2.2468,0.4411,0.2916,0.2626,0.2494,0.2307,0.2517,0.9943,53.5424,-1.0860,"Units 10 & 11, Heather Court",Shaw Wood Business Park,Shaw Wood Way,Doncaster,,DN2 5YL
191,Heckmondwike,3553,16.5256,0.4849,2.4399,0.4360,0.3510,0.2474,0.2440,0.2460,0.2581,0.9955,53.7074,-1.6714,Driver and Vehicle Standards Agency,Driving Test Centre Heckmondwike,Tower Buildings,High Street,,WF16 0AS
192,Leeds,5423,25.2233,0.4942,2.4289,0.4549,0.3229,0.2320,0.2458,0.2432,0.2746,0.9956,53.8151,-1.4885,Driver and Vehicle Standards Agency,Driving Test Centre Leeds (Harehills),"Hillcrest House, 386 Harehills Lane",Leeds,,LS9 6NF
195,Sheffield (Middlewood Road),5523,25.6884,0.4364,2.4751,0.4307,0.3174,0.2739,0.2281,0.2461,0.2475,0.9957,53.4167,-1.5108,Driver and Vehicle Standards Agency,Driving Test Centre,"508 Middlewood Road, Sheffield",,,S6 1TQ
197,Bolton (Manchester),6793,31.5953,0.5606,1.9854,0.5304,0.2940,0.2685,0.2294,0.2232,0.2747,0.9957,53.5652,-2.4235,Driver and Vehicle Standards Agency,Driving Test Centre Bolton,Weston Street,Bolton,,BL3 2AW
198,Bury (Manchester),4078,18.9674,0.3897,2.3161,0.4348,0.3222,0.2656,0.1822,0.2550,0.2788,0.9816,53.5996,-2.2866,Driver and Vehicle Standards Agency,Driving Test Centre Bury,Smith Street,Bury,,BL9 6HH
199,Cheetham Hill (Manchester),6114,28.4372,0.4290,2.2641,0.4508,0.3211,0.2556,0.2409,0.2421,0.2592,0.9979,53.5007,-2.2407,Driver and Vehicle Standards Agency,Driving Test Centre Cheetham Hill,Alderglen Road,Cheetham,,M8 0AL
200,Chorley,2233,10.3860,0.5696,1.9575,0.5508,0.2853,0.2020,0.1921,0.2257,0.3663,0.9861,53.6575,-2.6185,Driver and Vehicle Standards Agency,Driving Test Centre Chorley,Rossall Road,Chorley,,PR6 0BT
201,Rochdale (Manchester),3917,18.2186,0.3886,2.5175,0.4100,0.3505,0.2660,0.2354,0.2298,0.2568,0.9880,53.6148,-2.1283,Driver and Vehicle Standards Agency,Driving Test Centre Rochdale,"Room G10, Globe House Business Centre","Moss Bridge Road, Rochdale",,OL16 5EB
202,Sale (Manchester),5988,27.8512,0.4987,2.0558,0.4998,0.3398,0.2413,0.2425,0.2532,0.2612,0.9982,53.4194,-2.3202,Driver and Vehicle Standards Agency,Driving Test Centre Sale,36-38 Poplar Grove,Sale,,M33 7ER
205,Speke (Liverpool),5599,26.0419,0.3213,3.0932,0.3104,0.3009,0.2801,0.2002,0.2379,0.2522,0.9704,53.3482,-2.8853,Driver and Vehicle Standards Agency,Unit 3 Dakota Business Park,Skyhawk Avenue,Speke,,L19 2QR
206,Norris Green (Liverpool),7018,32.6419,0.3700,2.4820,0.4144,0.3116,0.2519,0.2392,0.2331,0.2575,0.9818,53.4441,-2.9305,Driver and Vehicle Standards Agency,Driving Test Centre Norris Green,Falklands Approach Parthenon Drive,Norris Green,,L11 5BR
207,Southport (Liverpool),3772,17.5442,0.5718,1.9669,0.5183,0.3173,0.2635,0.2428,0.2354,0.2572,0.9989,53.6443,-3.0040,Driver and Vehicle Standards Agency,Driving Test Centre Southport,Eastbank House,Eastbank Street,,PR8 1HE
209,Wallasey,1068,4.9674,0.4120,2.3961,0.4401,0.3071,0.2285,0.2406,0.2594,0.2669,0.9953,53.4190,-3.0276,Driver and Vehicle Standards Agency,Driving Test Centre Wallasey,17c King Street,Wallasey,,CH44 8AT
211,Widnes,3115,14.4884,0.4404,2.2738,0.4414,0.3191,0.2616,0.2360,0.2472,0.2504,0.9952,53.3632,-2.7704,Driver and Vehicle Standards Agency,Driving Test Centre Widnes,Everite Road,Widnes,,WA8 8PT
213,Crewe,3226,15.0047,0.4650,2.1500,0.4737,0.3060,0.2440,0.2340,0.2384,0.2774,0.9938,53.0899,-2.4441,Driver and Vehicle Standards Agency,Driving Test Centre Crewe,6 Nile Street,Crewe,,CW2 7LL
215,Northwich,2099,9.7628,0.5989,1.9238,0.5312,0.3216,0.2196,0.2230,0.2763,0.2763,0.9952,53.2597,-2.5262,Driver and Vehicle Standards Agency,Driving Test Centre Northwich (Northern),4 Felix Road Winnington,Northwich,,CW8 4BU
216,Buxton,2460,11.4419,0.5407,2.1057,0.4732,0.2862,0.2496,0.2134,0.2679,0.2659,0.9967,53.2529,-1.9149,Driver and Vehicle Standards Agency,The Driving Test Centre (Buxton),"The Dairy, 7 Green Lane",Buxton,,SK17 9DS
221,Macclesfield,2532,11.7767,0.5166,2.0245,0.4763,0.2887,0.2686,0.2287,0.2516,0.2492,0.9980,53.2599,-2.1298,Driver and Vehicle Standards Agency,Driving Test Centre Macclesfield,Unit 4 Bailey Court,"Green Street, Macclesfield",,SK10 1JQ
225,Carlisle LGV (Cars),2130,9.9070,0.5901,1.7432,0.5892,0.3127,0.2822,0.2479,0.2183,0.2423,0.9906,54.9242,-2.9515,Driver and Vehicle Standards Agency,Driving Test Centre Carlisle,Kingstown Industrial Estate,Carlisle,,CA3 0EH
226,Upton,5474,25.4605,0.4836,2.3601,0.4518,0.3122,0.2526,0.2336,0.2474,0.2612,0.9949,53.3794,-3.0977,Driver and Vehicle Standards Agency,Driving Test Centre Upton,Arrowe Park Rd,Upton,,CH49 0UF
229,Hartlepool,4622,21.4977,0.4814,2.2304,0.4505,0.3213,0.2839,0.2334,0.2218,0.2473,0.9864,54.6771,-1.2012,Driver and Vehicle Standards Agency,Driving Test Centre Hartlepool,"Unit 20, Newburn Bridge Industrial Estate",Mainsforth Terrace,,TS25 1TZ
232,Gosforth,6398,29.7581,0.4523,2.3857,0.4161,0.3231,0.2535,0.2440,0.2463,0.2438,0.9877,55.0416,-1.6091,Driver and Vehicle Standards Agency,Driving Test Centre Gosforth,Sandy lane,Gosforth,,NE3 5HB
234,Grimsby Coldwater,3253,15.1302,0.3812,2.3698,0.4024,0.3126,0.2742,0.2339,0.2290,0.2453,0.9825,53.5806,-0.1137,Driver and Vehicle Standards Agency,Driving Test Centre Grimsby LGV,"Estate Road 1, South Humberside Trading Estate","Pyewipe, Grimsby",,DN31 2TB
236,Steeton,2680,12.4651,0.5082,2.1063,0.4672,0.3201,0.2675,0.2067,0.2444,0.2765,0.9951,53.8992,-1.9517,Driver and Vehicle Standards Agency,Driving Test Centre Steeton,Steeton Grove,"Steeton, West Yorkshire",,BD20 6RW
237,Sheffield (Handsworth),5866,27.2837,0.4548,2.3500,0.4248,0.3126,0.2533,0.2443,0.2468,0.2492,0.9937,53.3690,-1.3651,"Department for Transport, Vehicle Testing Station",Orgreave Way,Handsworth,sheffield,,S13 9LT
238,Walton LGV,1470,6.8372,0.5259,2.5878,0.4190,0.2952,0.2007,0.1789,0.2680,0.3463,0.9939,53.9213,-1.3230,Driver and Vehicle Standards Agency,Driving Test Centre Walton LGV,Wighill Lane,Walton,,LS23 7DU
241,Kirkham LGV,1,0.0047,1.0000,2.0000,0.0000,0.0000,1.0000,0.0000,0.0000,0.0000,1.0000,53.7759,-2.8709,Driver and Vehicle Standards Agency,Driving Test Centre Kirkham LGV,Freckleton Lane,Kirkham,,PR4 2RP
242,Banff,130,0.6047,0.5615,1.7154,0.5385,0.3462,0.2538,0.1923,0.2846,0.2462,0.9769,57.6662,-2.5239,Driving Vehicle Standards Agency,Driving Test Centre Banff,Ground Floor,Banff Castle,,AB45 1DL
244,Barra,17,0.0791,0.8824,1.1765,0.8235,0.2353,0.3529,0.2941,0.0588,0.2941,1.0000,56.9551,-7.4883,Driver and Vehicle Standards Agency,Driving Test Centre Barra Island,"The Pier, Castlebay",,,HS9 5XD
245,Benbecula Island,67,0.3116,0.9104,1.3134,0.7910,0.2985,0.1343,0.2537,0.2985,0.3134,1.0000,57.4725,-7.3747,Driver and Vehicle Standards Agency,Driving Test Centre Benbecula Island,Balivanich Airport,Benbecula Island,,HS7 5LA
246,Brodick (Isle of Arran),48,0.2233,0.5625,2.0833,0.4167,0.3333,0.3333,0.2292,0.1667,0.2708,1.0000,55.5761,-5.1346,Driver and Vehicle Standards Agency,Driving Test Centre Brodick (Arran),Royal Mail Delivery Office,Mayish Road,,KA27 8AU
247,Aberfeldy,78,0.3628,0.4872,1.6282,0.6282,0.3077,0.0641,0.0513,0.5000,0.3846,1.0000,56.6180,-3.8683,Driver and Vehicle Standards Agency,Driving Test Centre Aberfeldy,"Town Hall, Crieff Road",,,PH15 2BJ
250,Buckie,196,0.9116,0.4592,2.3112,0.4694,0.2704,0.2296,0.2296,0.2755,0.2602,0.9949,57.6732,-2.9725,Driver and Vehicle Standards Agency,Driving Test Centre Buckie,"The Fire Station, East Cathcart Street",Buckie,,AB56 1QJ
251,Ballater,90,0.4186,0.7333,2.0000,0.5000,0.3222,0.0556,0.0889,0.3778,0.4778,1.0000,57.0456,-3.0412,Ballater Fire Station,Anderson Road (off Braichlie Rd),,BALLATER,,AB35 5QW
254,Airdrie,3803,17.6884,0.4549,2.2892,0.4439,0.2779,0.2456,0.2530,0.2482,0.2509,0.9976,55.8666,-3.9889,Driver and Vehicle Standards Agency,Driving Test Centre Airdrie,"7 Aitchison Street, Sword Street",Airdrie,,ML6 0DA
255,Castle Douglas,272,1.2651,0.5441,1.9228,0.5294,0.3088,0.3125,0.2169,0.2537,0.2132,0.9963,54.9315,-3.9360,Driver and Vehicle Standards Agency,Driving Test Centre Castle Douglas,"Carlingwark Cottage, Carlingwark Arc",Castle Douglas,,DG7 1TH
256,Cumnock,597,2.7767,0.5779,1.9414,0.5293,0.2864,0.1977,0.2647,0.2412,0.2931,0.9966,55.4523,-4.2633,Driver and Vehicle Standards Agency,Driving Test Centre Cumnock,"The Town Hall, 2 Hall Terrace",Cumnock,,KA18 1DX
259,Crieff,83,0.3860,0.5542,1.6867,0.5542,0.3012,0.2169,0.2651,0.2530,0.2410,0.9759,56.3681,-3.8456,Driver and Vehicle Standards Agency,Driving Test Centre Crieff,"Crieff Fire Station, Broich Road",Crieff,,PH7 3SB
260,Campbeltown,69,0.3209,0.5652,1.4203,0.6812,0.2609,0.2174,0.2754,0.3333,0.1739,1.0000,55.4230,-5.6015,Driver and Vehicle Standards Agency,Driving Test Centre Campbeltown,"Crown Buildings, Hall Street",Campbeltown,,PA28 6BU
262,Dumbarton,1011,4.7023,0.4975,1.9832,0.5005,0.3501,0.2423,0.2384,0.2601,0.2591,1.0000,55.9686,-4.5746,Strathleven House,Suite A4,Vale of Leven Industrial Estate,Dumbarton,,G82 3PD
265,Dumfries,1456,6.7721,0.5165,2.0062,0.4945,0.3276,0.2775,0.2562,0.2232,0.2273,0.9842,55.0692,-3.5967,Driver and Vehicle Standards Agency,Driving Test Centre Dumfries,161 Brooms Road,Dumfries,,DG1 2SH
266,Dunoon,138,0.6419,0.5290,2.1957,0.5000,0.1739,0.1594,0.1377,0.3841,0.3116,0.9928,55.9675,-4.9115,river and Vehicle Standards Agency,Driving Test Centre Dunoon,Dunoon Business Centre,"Unit 20 Highland Ave, Sandbank Business Park",,PA23 8KP
267,Duns,73,0.3395,0.6986,2.0137,0.4384,0.2877,0.2466,0.3014,0.2055,0.2466,1.0000,55.7778,-2.3482,Driver and Vehicle Standards Agency,Driving Test Centre Duns,"Scottish Borders Council, 8 Newton Street",Duns,,TD11 3AU
269,Elgin,1183,5.5023,0.4421,2.0972,0.4548,0.3347,0.2604,0.2485,0.2375,0.2468,0.9932,57.6515,-3.3184,Driver and Vehicle Standards Agency,Driving Test Centre Elgin,"Crown Buildings, 21 Trinity Road",Elgin,,IV30 1UE
274,Fraserburgh,396,1.8419,0.6364,1.6768,0.5707,0.4318,0.2323,0.2753,0.2854,0.2045,0.9975,57.6906,-2.0032,Driver and Vehicle Standards Agency,Office Number 7,"Fraserburgh Business Centre, South Harbour Road",Fraserburgh,,AB43 9TN
276,Forfar,446,2.0744,0.7399,1.6368,0.6211,0.2915,0.2601,0.2242,0.2601,0.2534,0.9978,56.6432,-2.8897,Driver and Vehicle Standards Agency,Driving Test Centre Forfar,Asda Supercentre,"Unit1,  New Road, Forfar",,DD8 2AE
277,Fort William,225,1.0465,0.5156,1.8844,0.5556,0.2000,0.1378,0.2044,0.4133,0.2444,1.0000,56.8213,-5.1049,Driver and Vehicle Standards Agency,Driving Test Centre Fort William,"Lochaber College, An Aird",Fort William,,PH33 6AN
278,Glasgow (Anniesland),4927,22.9163,0.4441,2.4583,0.4234,0.3217,0.2249,0.2182,0.2754,0.2754,0.9939,55.8892,-4.3384,Driver and Vehicle Standards Agency,Driving Test centre Glasgow Anniesland,351 Anniesland Road,Glasgow,,G13 1XS
279,Galashiels,893,4.1535,0.6103,2.1209,0.5017,0.2822,0.1613,0.2318,0.3068,0.2923,0.9922,55.6126,-2.8027,Driver and Vehicle Standards Agency,Driving Test Centre Galashiels,1 Croft Street,Galashiels,,TD1 3BH
280,Girvan,151,0.7023,0.6159,1.6954,0.5563,0.2715,0.2318,0.2384,0.2252,0.2848,0.9801,55.2412,-4.8586,The Carrick Buildings Learning,Centre,Henrietta Street,Girvan,,KA26 9AL
281,Gairloch,29,0.1349,0.7586,2.0345,0.5517,0.3448,0.3103,0.2414,0.1724,0.2759,1.0000,57.7368,-5.7019,Driver and Vehicle Standards Agency,Driving Test Centre Gairloch,Mihol Road,Gairloch,,IV21 2BX
282,Greenock,1325,6.1628,0.4211,2.3298,0.4325,0.2506,0.2272,0.2347,0.2709,0.2574,0.9902,55.9529,-4.7693,Driver and Vehicle Standards Agency,Driving Test Centre Greenock,19 A Union Street,Greenock,,PA16 8DD
283,Golspie,60,0.2791,0.6667,1.6333,0.6167,0.3333,0.2333,0.2333,0.3167,0.2167,1.0000,57.9730,-3.9837,Driver and Vehicle Standards Agency,Driving Test Centre Golspie,"Golspie Fire Station, Back Road",Golspie,,KW10 6SP
285,Grantown-On-Spey,113,0.5256,0.6018,1.9027,0.5664,0.2655,0.1770,0.2389,0.2301,0.3540,1.0000,57.3269,-3.6096,Driver and Vehicle Standards Agency,Driving Test Centre Grantown-on-Spey,"Grantown-on-spey Fire Station, Woodside Avenue",Grantown-on-Spey,,PH26 3JR
288,Haddington,946,4.4000,0.6099,1.8890,0.5550,0.3499,0.2484,0.2421,0.2622,0.2431,0.9958,55.9520,-2.7620,Driver and Vehicle Standards Agency,Driving Test Centre Haddington,Herdmanflatt,Haddington,,EH41 3NG
290,Hamilton,2815,13.0930,0.4391,2.1531,0.4423,0.2831,0.2284,0.2245,0.2679,0.2774,0.9982,55.7696,-4.0419,Driver and Vehicle Standards Agency,Driving Test Centre Hamilton,30 Selkirk Street,Hamilton,,ML3 6RQ
292,Huntly,191,0.8884,0.6545,1.7435,0.5812,0.3246,0.2618,0.1885,0.2775,0.2723,1.0000,57.4452,-2.7958,Driver and Vehicle Standards Agency,Driving Test Centre Huntly,Huntly Fire Station Depot Road,Huntly,,AB54 8JX
293,Hawick,241,1.1209,0.6680,1.7718,0.6390,0.2365,0.1494,0.2282,0.2158,0.4066,1.0000,55.4289,-2.7814,Driving Test Centre Hawick,Burnfoot Community Hub,89 Brunfoot Road,Hawick,,TD9 8EJ
294,Inverurie,565,2.6279,0.5274,1.7434,0.5628,0.3292,0.2726,0.2460,0.2460,0.2319,0.9965,57.2938,-2.3880,Driver and Vehicle Standards Agency,Driving Test Centre Inverurie (Grampian),Garioch Indoor Bowling Centre,Harlaw Industrial Estate,,AB51 4FR
295,Kingussie,72,0.3349,0.5833,1.5556,0.6528,0.2778,0.2361,0.2500,0.2639,0.2500,1.0000,57.0786,-4.0538,Driver and Vehicle Standards Agency,Driving Test Centre Kingussie,Kingussie Shinty Club The Market Stance,"Ruthven Road, Kingussie",,PH21 1EN
297,Kyle of Lochalsh,78,0.3628,0.6923,1.5897,0.6282,0.4231,0.3077,0.2179,0.2051,0.2564,0.9872,57.2805,-5.7210,Driver and Vehicle Standards Agency,Driving Test Centre Kyle of Lochalsh,Kyle of Lochalsh Fire Station,Stoney Road,,IV40 8BP
300,Kelso,217,1.0093,0.6866,1.8295,0.5945,0.2995,0.1429,0.2396,0.2074,0.4055,0.9954,55.9168,-2.4246,Driver and Vehicle Standards Agency,Driving Test Centre Kelso,"Lloyd Land Rover, Pinnaclehill Ind Est","Lee Forbes Way, Kelso",,TD5 8WD
302,Lanark,1316,6.1209,0.5441,1.8936,0.5190,0.2819,0.2629,0.2432,0.2485,0.2439,0.9985,55.6631,-3.7471,Driver and Vehicle Standards Agency,Driving Test Centre Lanark,Lanark Agricultural Centre,Lanark,,ML11 9AX
303,Lochgilphead,84,0.3907,0.6429,1.6548,0.6190,0.3452,0.3452,0.2857,0.1786,0.1905,1.0000,56.0359,-5.4284,Driver and Vehicle Standards Agency,Driving Test Centre Lochgilphead,Lochgilphead Community Centre,Manse Brae,,PA31 8QX
304,Stornoway,232,1.0791,0.5905,1.7802,0.5474,0.3405,0.2500,0.2328,0.2457,0.2716,1.0000,58.2078,-6.3910,Driver and Vehicle Standards Agency,Driving Test Centre Stornoway,"Fishermans Mission, 1 Quay Street",Stornoway,,HS1 2XX
305,Islay Island,23,0.1070,0.8261,1.6522,0.6087,0.2174,0.0435,0.0000,0.5217,0.4348,1.0000,55.7565,-6.2855,DVSA Driving Test Centre Islay Islands,Argyll and Bute Council Offices,Jamieson Street,Bowmore,Islay,PA43 7HL
307,Mallaig,30,0.1395,0.8000,1.8333,0.6333,0.2667,0.0000,0.1333,0.5333,0.3333,1.0000,57.0062,-5.8306,Driver and Vehicle Standards Agency,Driving Test Centre Mallaig,Mallaig and Morar Community Centre,West Bay,,PH41 4PX
308,Isle of Mull,13,0.0605,0.5385,1.6154,0.4615,0.3077,0.0000,0.0000,0.0000,1.0000,1.0000,56.5173,-5.9450,Driver and Vehicle Standards Agency,Driving Test Centre Island of Mull (Salen),Salen,Isle of Mull,,PA72 6JD
310,Newton Stewart,121,0.5628,0.6860,1.7273,0.5785,0.4380,0.2231,0.2645,0.2975,0.1983,0.9835,54.9607,-4.4853,Driving Vehicle Standard Agency,Driving Test Centre Newton Stewart,The Crown Hotel,,,DG8 6JW
311,Oban,185,0.8605,0.5784,1.6649,0.6216,0.2973,0.2162,0.1892,0.3027,0.2919,1.0000,56.4110,-5.4749,Driver and Vehicle Standards Agency,Driving Test Centre Oban,Cameron House Albany Street,Oban,,PA34 4AE
312,Orkney,260,1.2093,0.5885,1.8538,0.5192,0.3538,0.2462,0.2500,0.2577,0.2462,1.0000,58.9817,-2.9720,Driver and Vehicle Standards Agency,Driving Test Centre Orkney (Kirkwall),Kirkwall Auction Mart Hatston Industrial Estate,,,KW15 1FL
313,Peebles,266,1.2372,0.6617,1.8421,0.5639,0.2782,0.2293,0.2218,0.2444,0.3008,0.9962,55.6574,-3.1944,Driver and Vehicle Standards Agency,Driving Test Centre Peebles,Tweeddale District Council Rosetta Road,Peebles,,EH45 8DN
314,Peterhead,759,3.5302,0.5929,1.8248,0.5626,0.3557,0.2398,0.2240,0.2385,0.2912,0.9934,57.4871,-1.8016,Driver and Vehicle Standards Agency,Driving Test Centre Peterhead,Suite 21 Burnside Business Centre Burnside Road,Peterhead,,AB42 3AW
316,Paisley,3051,14.1907,0.4897,2.0328,0.4923,0.3268,0.2334,0.2507,0.2635,0.2494,0.9971,55.8436,-4.4755,Driving and Vehicle Standards Agency,Driiving Test Centre Paisley,1 West Avenue,"Linwood Industrial Estate, Paisley",,PA1 2FB
317,Pitlochry,69,0.3209,0.6087,2.1304,0.4928,0.1304,0.0870,0.2754,0.1594,0.4783,1.0000,56.7056,-3.7332,Driver and Vehicle Standards Agency,Driving Test Centre Pitlochry,"The Hall, West Moulin Road",Pitlochry,,PH16 5EA
318,Arbroath,353,1.6419,0.7620,1.4079,0.7422,0.2720,0.2408,0.2550,0.2436,0.2550,0.9943,56.5500,-2.6127,Driving Test centre Arbroath,,"Asda Supermarket Westway Retail Park, Dundee Road","Arbroath,",,DD11 2NQ
319,Rothesay,84,0.3907,0.5476,2.2619,0.5000,0.2024,0.1429,0.0833,0.5238,0.2500,1.0000,55.8365,-5.0563,Driver and Vehicle Standards Agency,Driving Test Centre Rothesay (Bute),C/O Dept of Employment,9 King Street,,PA20 0DG
320,Stranraer,196,0.9116,0.6429,1.6378,0.5714,0.3214,0.2398,0.2449,0.2143,0.3010,1.0000,54.9050,-5.0212,Driver and Vehicle Standards Agency,Driving Test Centre Stranraer,North West Castle Hotel,Stranraer,,DG9 8EH
322,Lerwick,272,1.2651,0.6471,1.6544,0.6176,0.3015,0.2610,0.2831,0.2353,0.2206,1.0000,60.1512,-1.1473,Driver and Vehicle Standards Agency,Driving Test Centre Lerwick (Shetland),"Isleburgh House, King Harald Street",Lerwick,,ZE1 0DJ
324,Isle of Skye (Portree),81,0.3767,0.6914,1.5926,0.6420,0.2963,0.2963,0.1975,0.2346,0.2593,0.9877,57.4168,-6.1995,Driver and Vehicle Standards Agency,Driving Test Centre Isle of Skye (Portree),"Portree GVTS, Industrial Estate","Lisigarry Place, Portree",,IV51 9BD
325,Stirling,1920,8.9302,0.4870,2.0073,0.5016,0.3208,0.2625,0.2281,0.2594,0.2453,0.9953,56.1108,-3.9394,Driver and Vehicle Standards Agency,Driving Test Centre Stirling,Government Buildings 2 St Ninians Road,Stirling,,FK8 2HF
329,Thurso,116,0.5395,0.6897,1.6552,0.6121,0.2586,0.2586,0.2845,0.2586,0.1983,1.0000,58.5923,-3.5366,Driver and Vehicle Standards Agency,Driving Test Centre Thurso,"Naver House,  Naver Road",Naver Business Park,,KW14 7QA
330,Isle of Tiree,3,0.0140,0.6667,2.0000,0.3333,0.0000,0.0000,1.0000,0.0000,0.0000,1.0000,56.4996,-6.8092,Driver and Vehicle Standards Agency,Driving Test Centre Isle of Tiree,"Tiree Lodge Hotel , Got Bay",Kirkapol,,PA77 6TW
331,Ullapool,36,0.1674,0.6667,1.2778,0.7500,0.3333,0.2222,0.1944,0.2778,0.3056,1.0000,57.8989,-5.1593,Ullapool Fire Station,Lady Smith Street,Ullapool,,,IV26 2UW
333,Inveraray,54,0.2512,0.7407,1.8704,0.6111,0.2963,0.2222,0.2222,0.2963,0.2593,1.0000,56.2312,-5.0717,Driver and Vehicle Standards Agency,Driving Test Centre Inveraray (Argyll),The Pier,Inveraray,,PA32  8XF
337,Aberdeen North,2305,10.7209,0.4464,2.2152,0.4477,0.3275,0.2668,0.2377,0.2377,0.2538,0.9961,57.1810,-2.1190,Driver and Vehicle Standards Agency,Driving Test Centre LGV Aberdeen,"Cloverhill Road, Bridge of Don",Aberdeen,,AB23 8FE
345,Livingston,2918,13.5721,0.5103,2.0764,0.5075,0.2807,0.2858,0.2498,0.2166,0.2419,0.9942,55.8871,-3.5342,Driver and Vehicle Standards Agency,Driving Test Centre LGV Livingston,Houston Industrial Estate,Livingston,,EH54 5DE
347,Perth (Arran Road),1812,8.4279,0.4674,1.9724,0.5022,0.3190,0.2826,0.2406,0.2136,0.2555,0.9923,56.4171,-3.4575,Driver and Vehicle Standards Agency,Driving Test Centre Perth,"Arran Road, North Muirton Ind Estate",Perth,,PH1 3DZ
355,Abergavenny,2777,12.9163,0.6060,1.8423,0.5646,0.3299,0.2938,0.2081,0.2470,0.2481,0.9971,51.8159,-3.0106,Driver and Vehicle Standards Agency,Driving Test Centre Abergavenny,"Station Road, Abergavenny",,,NP7 5HT
356,Aberystwyth (Park Avenue),777,3.6140,0.5792,1.8314,0.5354,0.3320,0.2407,0.2510,0.2523,0.2484,0.9923,52.4112,-4.0798,Driver and Vehicle Standards Agency,Aberystwyth Football Club,Park Avenue,ABERYSTWYTH,,SY23 1PG
358,Bala,256,1.1907,0.5273,2.0312,0.5039,0.3281,0.2500,0.2773,0.2734,0.1992,1.0000,52.9089,-3.6003,Driver and Vehicle Standards Agency,Driving Test Centre Bala,"Unit 4, Penllyn Workshops",Bala,,LL23 7SP
360,Barnstaple,2094,9.7395,0.5778,1.8329,0.5344,0.3734,0.2722,0.2350,0.2393,0.2498,0.9962,51.0850,-4.0826,Unit 1A,Benning Court (Off Riverside Road),"Pottington Industrial Estate, Barnstaple",,,EX31 1AB
362,Basingstoke,2473,11.5023,0.6126,1.8378,0.5613,0.2895,0.2920,0.2362,0.2139,0.2539,0.9960,51.2453,-1.1125,Driver and Vehicle Standards Agency,Driving Test Centre Basingstoke,Sullivan Road,"Brighton Hill, Basingstoke",,RG22 4LR
363,Bodmin,3491,16.2372,0.4191,2.3154,0.4088,0.2770,0.2902,0.2280,0.2269,0.2501,0.9951,50.4597,-4.7085,Driver and Vehicle Standards Agency,Driving Test Centre Bodmin Beatrice Road,"Units 32 - 36, Walker Lines Offices, Beatrice Road","Bodmin, Cornwall",,PL31 1RD
365,Brecon,1111,5.1674,0.5770,1.9415,0.5185,0.2844,0.2772,0.2349,0.2160,0.2547,0.9829,51.9302,-3.3988,Driver and Vehicle Standards Agency,Driving Test Centre Brecon,Camden Road,Brecon,,LD3 7RT
366,Bridgend,2849,13.2512,0.5598,1.8512,0.5335,0.3117,0.2534,0.2457,0.2759,0.2222,0.9972,51.5053,-3.5799,Driver and Vehicle Standards Agency,Driving Test Centre Bridgend,"Crown Building, Angel Street",Bridgend,,CF31 4AD
372,Camborne,3332,15.4977,0.4196,2.2947,0.4151,0.3169,0.2656,0.2383,0.2293,0.2617,0.9949,50.2270,-5.2660,Driver and Vehicle Standards Agency,Driving Test Centre Camborne L   LGV,"Wilson Way, Redruth",Camborne,,TR15 3RP
375,Cardigan,835,3.8837,0.5126,1.9210,0.5102,0.3760,0.2743,0.2335,0.2431,0.2467,0.9976,52.0851,-4.6579,Driver and Vehicle Standards Agency,Driving Test Centre Cardigan,"Crown Buildings, Napier Street",Cardigan,,SA43 1ED
376,Carmarthen,1246,5.7953,0.5305,1.7681,0.5578,0.3339,0.2424,0.2448,0.2448,0.2624,0.9944,51.8559,-4.3030,Driver and Vehicle Standards Agency,Driving Test Centre Carmarthen,"Ty Myrddin, Crown Building, Old Station Road",Carmarthen,,SA31 1LP
377,Cheltenham,4032,18.7535,0.4596,2.0836,0.4752,0.3167,0.2408,0.2366,0.2626,0.2574,0.9975,51.9035,-2.0650,Driver and Vehicle Standards Agency,Driving Test Centre Cheltenham,"Bishopsgate House, 94 All Saints Road",Cheltenham,,GL52 2HQ
378,Chippenham,3782,17.5907,0.4762,2.0492,0.5005,0.3041,0.2652,0.2319,0.2427,0.2485,0.9884,51.4655,-2.1438,Driver and Vehicle Standards Agency,Driving Test Centre Chippenham,"Unit 11, Cavalier Court, Bumpers Farm",Chippenham,,SN14 6LH
390,Isles of Scilly,11,0.0512,0.7273,2.7273,0.2727,0.2727,0.2727,0.1818,0.3636,0.1818,1.0000,49.9145,-6.3152,Driver and Vehicle Standards Agency,Driving Test Centre Isles of Scilly,Town Hall,St Marys,,TR21 0LW
392,Launceston,1640,7.6279,0.4165,2.1945,0.4220,0.3512,0.2512,0.2439,0.2591,0.2329,0.9872,50.6120,-4.3307,Suite 4,"Sheers Barton Barns, Lawhitton",,LAUNCESTON,,PL15 9NJ
394,Llanelli,1742,8.1023,0.5390,1.9196,0.5126,0.3272,0.2532,0.2468,0.2440,0.2480,0.9920,51.6861,-4.1554,Driver and Vehicle Standards Agency,Driving Test Centre Llanelli,Toft Place Llanerch,Llanelli,,SA15 3SB
395,Llantrisant,4632,21.5442,0.5661,1.9264,0.5015,0.3083,0.2500,0.2368,0.2455,0.2662,0.9985,51.5243,-3.3650,Driver and Vehicle Standards Agency,Driving Test Centre Llantrisant LGV,"School Road, Miskin",Llantrisant,,CF72 8YR
399,Monmouth,946,4.4000,0.4905,1.8319,0.5560,0.3584,0.2896,0.2188,0.2326,0.2505,0.9915,51.8136,-2.7098,Driver and Vehicle Standards Agency,Driving Test Centre Monmouth,Old Dixon Road,Monmouth,,NP25 3DP
404,Newport (Isle of Wight),2228,10.3628,0.4982,2.0004,0.4928,0.3469,0.2558,0.2424,0.2504,0.2478,0.9964,50.7131,-1.2971,Driver and Vehicle Standards Agency,Driving Test Centre Newport (I.o.W),Innovation Centre,"St Cross Business Park, Newport",,PO30 5WB
405,Newton Abbot,3678,17.1070,0.5207,1.9247,0.5098,0.2678,0.2387,0.2287,0.2382,0.2858,0.9913,50.5275,-3.5973,Driver and Vehicle Standards Agency,Driving Test Centre Newton Abbot,"Vander House, Brunel Rd",Newton Abbot,,TQ12 4YQ
406,Newtown,1100,5.1163,0.6782,1.9218,0.5118,0.3455,0.2636,0.2327,0.1918,0.3109,0.9991,52.5131,-3.3159,Driver and Vehicle Standards Agency,Driving Test Centre Newtown,Ladywell House,Newtown,,SY16 1JB
407,Pembroke Dock,1150,5.3488,0.5452,1.8183,0.5243,0.3296,0.2443,0.2478,0.2496,0.2539,0.9957,51.6945,-4.9525,Driver and Vehicle Standards Agency,"Ground Floor, Captain Superintendents Building","The Dockyard, PEMBROKE DOCK",,,SA72 6TD
408,Penzance,392,1.8233,0.5281,1.9490,0.5408,0.1709,0.2755,0.2398,0.2143,0.2679,0.9974,50.1183,-5.5421,Driver and Vehicle Standards Agency,Driving Test Centre Penzance,1 Alverton Terrace,Penzance,,TR18 4JH
410,Plymouth LGV,58,0.2698,0.1379,2.3448,0.3621,0.2069,0.1724,0.2241,0.3966,0.2069,1.0000,50.4151,-4.1742,Driver and Vehicle Standards Agency,Driving Test Centre Plymouth LGV,Agaton Fort,Agaton Fort Road,,PL5 2QZ
413,Poole,6684,31.0884,0.4862,1.9375,0.5154,0.3151,0.2552,0.2458,0.2488,0.2422,0.9921,50.7410,-1.9757,Driver and Vehicle Standards Agency,Driving Test Centre Poole,"4-20 Harwell Road, Nuffield Ind Estate",Poole,,BH17 0SA
415,Pwllheli,540,2.5116,0.5389,1.7037,0.5630,0.3074,0.2463,0.2500,0.2463,0.2537,0.9963,52.8807,-4.4233,Driver and Vehicle Standards Agency,Driving Test Centre Pwllheli,33 A Cardiff Road,Pwllheli,,LL53 5NT
416,Reading,3543,16.4791,0.4928,1.9038,0.5253,0.3237,0.2348,0.2261,0.2763,0.2566,0.9938,51.4428,-0.9723,Driver and Vehicle Standards Agency,Driving Test Centre Reading,220 Elgar Road South,Reading,,RG2 0BW
418,Rhyl,2278,10.5953,0.5360,1.9693,0.4969,0.2463,0.2546,0.2450,0.2335,0.2577,0.9908,53.3149,-3.4857,Driver and Vehicle Standards Agency,Driving Test Centre Rhyl,Victoria Road,Rhyl,,LL18 2EL
420,Salisbury,2065,9.6047,0.6029,1.7952,0.5676,0.3094,0.2586,0.2387,0.2412,0.2562,0.9947,51.0719,-1.7882,Driver and Vehicle Standards Agency,Driving Test Centre Salisbury,Rougemont Close,Salisbury,,SP1 1LY
421,Slough (London),8351,38.8419,0.5004,1.9478,0.5271,0.3294,0.2418,0.2455,0.2476,0.2607,0.9956,51.5036,-0.5462,Drivng Test Centre Slough,12 Waterside Drive,Langley,SLOUGH,,SL3 6EZ
423,Southampton (Maybush),7244,33.6930,0.4423,2.1647,0.4761,0.3164,0.2555,0.2450,0.2409,0.2539,0.9953,50.9327,-1.4552,Driver and Vehicle Standards Agency,Driving Test Centre Maybush,Green Lane,Maybush,,SO16 9FP
427,Swindon LGV,533,2.4791,0.1839,2.3977,0.3640,0.2702,0.2120,0.2120,0.2889,0.2608,0.9737,51.5029,-1.7335,Driver and Vehicle Standards Agency,Driving Test Centre Swindon LGV,Chisledon Camp,Chisledon,,SN4 0FH
428,Beverley LGV,377,1.7535,0.5597,2.0902,0.5093,0.2812,0.1777,0.3130,0.2016,0.3050,0.9973,53.8442,-0.4049,Driver and Vehicle Standards Agency,Driving Test Centre Beverley LGV,"Old Beck Road, Off Groveshill Road",Beverley,,HU17 0JG
433,Weston-super-Mare,3135,14.5814,0.5907,1.8067,0.5448,0.3158,0.2663,0.2437,0.2399,0.2450,0.9949,51.3410,-2.9727,Driver and Vehicle Standards Agency,Driving Test Centre Weston-Super-Mare,Plot 11 Sunnyside Rd North Industrial Estate,,,BS23 3PZ
434,Winchester,3844,17.8791,0.4914,1.9409,0.5138,0.3304,0.2484,0.2513,0.2500,0.2471,0.9969,51.0565,-1.3221,Driver and Vehicle Standards Agency,Driving Test Centre Winchester,Christchurch Road,Winchester,,SO23 9SY
438,Yeovil,3282,15.2651,0.6060,1.7203,0.5841,0.3029,0.2629,0.2410,0.2428,0.2520,0.9988,50.9437,-2.6609,Driver and Vehicle Standards Agency,Driving Test Centre Yeovil,Suite 2 Abbey Manor Business Ctr,"Preston Road, Yeovil",,BA20 2EN
439,Exeter LGV,302,1.4047,0.3841,2.5132,0.3742,0.3146,0.2285,0.2417,0.2219,0.2914,0.9834,50.7046,-3.5319,Driver and Vehicle Standards Agency,Driving Test Centre Exeter LGV,Grace Road,Marsh Barton,,EX2 8PU
441,Leicester (Cannock Street),8547,39.7535,0.3834,2.4561,0.4047,0.3421,0.2540,0.2453,0.2469,0.2458,0.9920,52.6635,-1.0804,Driver and Vehicle Standards Agency,Driving Test Centre Leicester LGV,"40 Cannock Street, Barkbythorpe Road",Troon Industrial Estate,,LE4 9HT
444,Enfield (Brancroft Way),94,0.4372,0.5532,2.3191,0.4362,0.2128,0.2128,0.1702,0.2234,0.3936,1.0000,51.6594,-0.0298,Driver and Vehicle Standards Agency,Driving Test Centre Enfield LGV,"33 Brancroft Way, Brimsdown",Enfield,,EN3 7NJ
446,Worthing,4509,20.9721,0.6052,2.0051,0.5063,0.3307,0.2668,0.2371,0.2504,0.2437,0.9980,50.8201,-0.4094,"DVSA Art Room, Field Place",The Boulevard,Worthing,West Sussex,,BN13 1NP
454,Yeading (London),3195,14.8605,0.4172,2.0576,0.4942,0.2854,0.2770,0.2222,0.2313,0.2495,0.9800,51.5235,-0.3901,Driver and Vehicle Standards Agency,Driving Test Centre Yeading LGV,Willow Tree Lane,Yeading,,UB4 9BS
456,Callander,72,0.3349,0.4861,2.0139,0.5278,0.3472,0.2083,0.2222,0.2778,0.2917,1.0000,56.2426,-4.2138,Driver and Vehicle Standars Agency,DTC Callander,Callander Youth Hostel,6 Bridgend,,FK17 8AH
457,Watford,5668,26.3628,0.4938,1.9808,0.5134,0.3102,0.2488,0.2378,0.2468,0.2636,0.9970,51.6664,-0.3653,Driver and Vehicle Standards Agency,Driving Test Centre Watford,CP House Otterspool Way,Watford,,WD25 8HU
458,Hastings (Ore),1885,8.7674,0.4716,2.0446,0.4775,0.2934,0.2806,0.2042,0.2313,0.2653,0.9814,50.8852,0.5992,Driver and Vehicle Standards Agency,Driving Test Centre Hastings (Ore),"Brookway Business Park, Ivyhouse Lane",Hastings,,TN35 4NN
459,Stafford,1931,8.9814,0.4718,2.0399,0.4868,0.3024,0.2657,0.2450,0.2465,0.2372,0.9943,52.8128,-2.1256,Driver and Vehicle Standards Agency,Driving Test Centre Stafford,Unit 7 Greyfriars Business Park,Frank Foley Way,,ST16 2RF
481,Tolworth (London),6268,29.1535,0.5174,1.9726,0.5164,0.3295,0.2216,0.2227,0.2695,0.2817,0.9955,51.3830,-0.2936,Driver and Vehicle Standards Agency,Driving Test Centre Tolworth,"Douglas House,  1b  Douglas Road",Tolworth,,KT6 7RZ
482,Goodmayes (London),12607,58.6372,0.4512,2.2343,0.4391,0.3076,0.2294,0.2193,0.2647,0.2833,0.9967,51.5638,0.1100,Driver and Vehicle Standards Agency,Driving Test Centre Goodmayes,"98 Goodmayes Road, Ilford",,,IG3 9UZ
506,Portsmouth,6345,29.5116,0.5218,1.9330,0.5188,0.3262,0.2528,0.2443,0.2438,0.2545,0.9954,50.8578,-1.1096,Driver and Vehicle Standards Agency,Driving Test Centre Portsmouth,"Opposite Fort Southwick, James Callaghan Drive","Fareham, Hampshire",,PO17 6AR
507,Warwick (Wedgenock House),5631,26.1907,0.4616,2.1044,0.4882,0.3326,0.2678,0.2374,0.2422,0.2452,0.9927,52.2951,-1.6005,Driver and Vehicle Standards Agency,Driving Test Centre Warwick,Ground Floor Wedgnock House Wedgnock Lane,Warwick,,CV34 5AP
656,Coventry,5246,24.4000,0.4203,2.1933,0.4802,0.3149,0.2524,0.2425,0.2457,0.2571,0.9977,52.4636,-1.4759,Driver and Vehicle Standards Agency,Driving Test Centre Coventry,"Bayton Road Industrial Estate, 42 Bayton Road",Coventry,,CV7 9EJ
676,Glasgow (Baillieston),5180,24.0930,0.4668,2.4510,0.4299,0.2197,0.2724,0.2506,0.1969,0.2747,0.9946,55.8607,-4.1137,Driver and Vehicle Standards Agency,Driving Test Centre Glasgow Baillieston,"341  Springhill Parkway, Glasgow Business Park",Glasgow,,G69 6GA
696,Alness,549,2.5535,0.5993,1.8925,0.5811,0.3588,0.2186,0.2495,0.2168,0.3097,0.9945,57.6906,-4.2681,Driver and Vehicle Standards Agency,Driving Test Centre Alness,"Unit 22 Fyrish Way, Teaninich Industrial Estate",Alness,,IV17 0PJ
716,Edinburgh (Currie),4324,20.1116,0.4759,2.1825,0.4683,0.3092,0.2211,0.2273,0.2537,0.2891,0.9912,55.8999,-3.3082,Driver and Vehicle Standards Agency,Driving Test Centre Edinburgh Currie,13-15 Bryce Road,Currie,,EH14 5LT
776,Chertsey (London),5142,23.9163,0.4938,1.9665,0.5091,0.3108,0.2200,0.2052,0.2682,0.2991,0.9924,51.3843,-0.5098,Driver and Vehicle Standards Agency,Driving Test Centre Chertsey,"Unit 4, The Forum, Hanworth Lane",Chertsey,,KT16 9JX
796,Borehamwood (London),3905,18.1628,0.4894,2.0817,0.4937,0.3191,0.2589,0.2305,0.2282,0.2796,0.9972,51.6441,-0.2567,Driver and Vehicle Standards Agency,Driving Test Centre,"Ground Floor, Unit 1, Stirling Court","Stirling Way, Borehamwood",,WD6 2BT
816,Gloucester,3129,14.5535,0.4768,1.9281,0.5494,0.2934,0.3068,0.2151,0.2224,0.2531,0.9974,51.8333,-2.2767,Driving Test Centre Gloucester,Falcon Close,Green Farm Business Park,Quedgeley,,GL2 4LY
836,Newport (Gwent),3261,15.1674,0.4554,2.1469,0.4891,0.3321,0.2616,0.2377,0.2502,0.2456,0.9951,51.5708,-2.9707,Driver and Vehicle Standards Agency,Driving Test Centre Newport,"Stephenson Street, Off Corporation Road","Liswerry, Newport",,NP19 4XB
876,Shrewsbury,3286,15.2837,0.5170,2.1656,0.4553,0.3268,0.2596,0.2404,0.2489,0.2495,0.9985,52.7459,-2.7365,Driver and Vehicle Standards Agency,Driving Test Centre Shrewsbury,Stafford Drive,Battlefield Enterprise Park,,SY1 3BF
896,Edinburgh (Musselburgh),4446,20.6791,0.4413,2.2418,0.4692,0.3394,0.2605,0.2389,0.2476,0.2499,0.9969,55.9431,-3.0669,Driving Test Centre Edinburgh Musselburgh,Olivebank,Newhailes Road,,,EH21 6SJ
936,Glasgow (Shieldhall),3027,14.0791,0.4054,2.1351,0.4625,0.3224,0.2494,0.1979,0.2689,0.2775,0.9937,55.8646,-4.3486,Driver and Vehicle Standards Agency,Driving Test Centre Glasgow Shieldhall,"Bogmoor Road, Shieldhall",Glasgow,,G51 4TH
956,Rotherham,4020,18.6977,0.4868,2.2015,0.4711,0.2821,0.2925,0.2224,0.2311,0.2458,0.9918,53.4422,-1.3581,Driver and Vehicle Standards Agency,Driving Test Centre Rotherham,Mangham Way,Off Mangham Road,,S61 4RL
957,Gateshead,5045,23.4651,0.4226,2.4285,0.4182,0.3292,0.2735,0.2198,0.2414,0.2539,0.9887,54.9572,-1.6560,Driver and Vehicle Standards Agency,Driving Test Centre Gateshead,Waterside Drive,Dunston,,NE11 9HU
958,Darlington,4224,19.6465,0.5670,2.0852,0.4763,0.3260,0.2670,0.2356,0.2450,0.2420,0.9896,54.5196,-1.5083,Driver and Vehicle Standards Agency,Driving Test Centre Darlington MPTC,"High Point Business Park, Yarm Road",Darlington,,DL1 4PW
976,Hull,5206,24.2140,0.5056,2.0903,0.4902,0.3016,0.2682,0.2395,0.2415,0.2438,0.9929,53.7678,-0.3361,Driver and Vehicle Standards Agency,Driving Test Centre HULL,"Reservoir Road, Off Clough Road",Kingston Upon Hull,,HU6 7PY
996,Enfield (Innova Business Park),4506,20.9581,0.5113,2.1833,0.4707,0.3222,0.2548,0.2408,0.2441,0.2597,0.9993,51.6769,-0.0216,Driver and Vehicle Standards Agency,Driving Test Centre Enfield,"Solar Way, Innova Business Park",Enfield,,EN3 7XY
1016,Exeter,5046,23.4698,0.4841,2.0767,0.4738,0.2850,0.2909,0.2329,0.2184,0.2519,0.9941,50.6987,-3.5158,Driver and Vehicle Standards Agency,Driving Test Centre Exeter,"Thorverton Rd, Marsh Barton",Exeter,,EX2 8FS
1036,Scunthorpe,4581,21.3070,0.4154,2.4172,0.3866,0.3414,0.2585,0.2399,0.2417,0.2502,0.9902,53.5980,-0.6448,Driver and Vehicle Standards Agency,Driving Test Centre Scunthorpe MPTC,Onward Way Off Warren Road,Scunthorpe,,DN15 6XH
1056,Erith (London),2458,11.4326,0.4207,2.3173,0.4369,0.3263,0.2685,0.2107,0.2356,0.2710,0.9858,51.5030,0.1620,Driving Test Centre Erith MPTC,Crabtree,Manor Way North,Erith,,DA17 6LJ
1076,St Helens (Liverpool),5084,23.6465,0.3979,2.2565,0.4205,0.3151,0.2606,0.2382,0.2384,0.2492,0.9864,53.4564,-2.7241,Driver and Vehicle Standards Agency,Driving Test Centre St Helens MPTC,"1 Navigation Road, off Pocket Nook Street",St Helens,,WA9 1NS
1116,Nottingham (Colwick),5284,24.5767,0.4750,2.2430,0.4674,0.2960,0.2591,0.2479,0.2405,0.2494,0.9970,52.9575,-1.0703,Driver and Vehicle Standards Agency,Driving Test Centre Colwick,Private Road No.5,Colwick Industrial Estate,,NG4 2JU
1136,Burton on Trent,3526,16.4000,0.5306,2.0794,0.4821,0.3347,0.2572,0.2493,0.2391,0.2516,0.9972,52.7953,-1.6587,Driver and Vehicle Standards Agency,Driving Test Centre Burton on Trent,Wellington Park,"Burton on Trent, Staffordshire.",,DE14 2TG
1156,Kings Lynn,4425,20.5814,0.4802,2.0764,0.4660,0.3191,0.2551,0.2470,0.2423,0.2542,0.9986,52.7460,0.4211,Driver and Vehicle Standards Agency,Driving Test Centre Kings Lynn,"Rollesby Road, Hardwick Industrial Estate",Kings Lynn,,PE30 4LS
1157,Peterborough,5123,23.8279,0.4841,2.0353,0.5032,0.2774,0.3201,0.2018,0.2282,0.2383,0.9885,52.5691,-0.2195,Driver and Vehicle Standards Agency,Driving Test Centre Peterborough,"Second Drove, Fengate",Peterborough,,PE1 5XA
1176,Birmingham (Garretts Green),11202,52.1023,0.4064,2.4955,0.4088,0.3057,0.2878,0.2262,0.2300,0.2471,0.9912,52.4732,-1.7722,Driving Test Centre Birmingham Garretts Green,Granby Avenue,Garretts Green,BIRMINGHAM,,B33 0SD
1196,Kirkcaldy,3541,16.4698,0.4346,2.2592,0.4499,0.2358,0.2525,0.2067,0.2437,0.2889,0.9918,56.1337,-3.1266,Driver and Vehicle Standards Agency,Driving Test Centre Kirkcaldy,10 Randolph Place,Kirkcaldy,,KY1 2YX
1216,Lincoln,4655,21.6512,0.4913,2.0750,0.4799,0.3383,0.2649,0.2361,0.2419,0.2492,0.9921,53.2036,-0.6123,Driver and Vehicle Standards Agency,Driving Test Centre Lincoln,"Earlsfield Close, Off Sadler Road",Lincoln,,LN6 3RT
1236,Swindon,4590,21.3488,0.4758,2.0776,0.4965,0.3357,0.2619,0.2377,0.2438,0.2545,0.9978,51.5745,-1.8328,Driver and Vehicle Standards Agency,Driving Test Centre Swindon,1 Fenn Close,Peatmoor,,SN5 5BL
1237,Inverness (Longman Drive),31,0.1442,0.5161,2.3871,0.4839,0.1290,0.2258,0.2581,0.2258,0.2903,1.0000,57.4909,-4.2295,Driver and Vehicle Standards Agency,Driving Test Centre Inverness,4 Longman Drive,Inverness,,IV1 1SU
1238,Kettering,5675,26.3953,0.4944,2.0842,0.4872,0.2835,0.2763,0.2256,0.2310,0.2506,0.9834,52.3788,-0.7228,Driver and Vehicle Standards Agency,Driving Test Centre Kettering,"Orion Way, Kettering Business Park",Kettering,,NN15 6NL
1257,Chester,6022,28.0093,0.4542,2.2949,0.4228,0.2851,0.2419,0.2253,0.2227,0.2972,0.9872,53.1620,-2.8476,Driver and Vehicle Standards Agency,"Unit 16, Telford Court, Dunkirk Trading Estate","Chester Gates, Dunkirk",CHESTER,,CH1 6LT
1258,Burgess Hill,7228,33.6186,0.4519,2.2872,0.4203,0.3128,0.2582,0.2334,0.2454,0.2555,0.9925,50.9576,-0.1275,Driver and Vehicle Standards Agency,Driving Test Centre Burgess Hill,"Off Charles Avenue, Victoria Industrial Estate",Burgess Hill,,RH15 9AG
1276,Carlisle,71,0.3302,0.6901,1.7606,0.5070,0.2676,0.2113,0.3380,0.1408,0.2958,0.9859,54.8968,-2.9525,Driver and Vehicle Standards Agency,Driving Test Centre Carlisle,"Port Road Business Park, Port Road",Carlisle,,CA2 7AF
1316,Swansea,6069,28.2279,0.5436,2.0049,0.5054,0.3384,0.2747,0.2317,0.2394,0.2483,0.9941,51.6203,-3.9187,Driver and Vehicle Standards Agency,Driving Test Centre Swansea MPTC,Langdon Rd,Swansea,,SA1 8QY
1317,Lee On The Solent,6911,32.1442,0.5924,1.9676,0.5370,0.3175,0.2522,0.2487,0.2492,0.2476,0.9977,50.8095,-1.2042,The Richard Sainsbury Building,Daedalus Argus Gate,"Daedalus Drive, Lee on the Solent",Hampshire,,PO13 9JY
1318,Bangor,1556,7.2372,0.5077,1.7988,0.5450,0.2911,0.2744,0.2114,0.2384,0.2719,0.9961,53.2182,-4.1044,Gateway Park,Llandegai Ind Estate,Llandegai,Bangor,,LL57 4YH
1336,Farnborough,5918,27.5256,0.5776,1.8319,0.5635,0.3205,0.2533,0.2364,0.2511,0.2562,0.9970,51.2743,-0.7720,Driver and Vehicle Standards Agency,Driving Test Centre Farnborough,"35 Hercules Way, Aerospace Boulevard","Unit C1, Cirrus, Farnborough",,GU14 6UU
1337,Herne Bay,4510,20.9767,0.5667,1.9583,0.5430,0.2863,0.2749,0.2319,0.2306,0.2552,0.9927,51.3625,1.1443,Driver and Vehicle Standards Agency,Altria Business park,Margate Road,Thanet Way,,CT6 6GZ
1357,Bristol (Kingswood),6042,28.1023,0.5583,1.9012,0.5447,0.2989,0.2738,0.2162,0.2440,0.2618,0.9957,51.4724,-2.4892,The Siston Centre,Station Road,Kingswood,Bristol,,BS15 4GQ
1376,Norwich (Peachman Way),5908,27.4791,0.5933,1.9250,0.5362,0.3309,0.2686,0.2373,0.2409,0.2505,0.9973,52.6344,1.3750,PLOT 16A,Peachman Way,Broadlands Business Park,Thorpe St Andrew,Norwich,NR7 0WE
1396,Basildon,3420,15.9070,0.4766,2.1292,0.4743,0.3377,0.2693,0.2196,0.2404,0.2605,0.9898,51.5785,0.4703,Driving Test Centre,,"Paycocke Road, Basildon",,,SS14 3JS
1416,Bedford,4331,20.1442,0.5488,1.9220,0.5382,0.3567,0.2477,0.2341,0.2563,0.2570,0.9952,52.1513,-0.4762,Bedford Heights,Manton Lane,Bedford,,,MK41 7BJ
1858,Atherton (Manchester),3220,14.9767,0.4615,2.1814,0.4795,0.3003,0.2705,0.2422,0.2329,0.2522,0.9978,53.5301,-2.5047,Driver and Vehicle Standards Agency,,"5 Gibfield Park Avenue, Atherton",MANCHESTER,,M46 0SU
1860,Blackburn with Darwen,5041,23.4465,0.4777,2.2222,0.4448,0.3291,0.2591,0.2561,0.2254,0.2396,0.9802,53.7141,-2.4765,Driver and Vehicle Standards Agency,Driving Test Centre Blackburn with Darwen,"Blackburn Interchange, Commercial Road",Blackburn,,BB3 0DB
1878,Aberdeen South (Cove),2926,13.6093,0.5335,1.9710,0.5082,0.3230,0.2697,0.2355,0.2420,0.2509,0.9979,57.0886,-2.1075,MOSS ROAD,GATEWAY BUSINESS PARK,"NIGG, ABERDEEN",,,AB12 3GQ
1942,Mitcham (London),6386,29.7023,0.5103,2.3658,0.4302,0.3439,0.2682,0.2211,0.2501,0.2556,0.9950,51.3905,0.1358,Driver and Vehicle Standards Agency,Driving Test Centre Mitcham,Redhouse Road,Mitcham,,CR0 3AQ
1978,Plymouth,4820,22.4186,0.4044,2.4363,0.4023,0.3023,0.2747,0.2249,0.2378,0.2566,0.9940,50.4139,-4.1829,Driver and Vehicle Standards Agency,Driving test centre Plymouth,Ernsettle Lane,Plymouth,,PL5 2EY
2018,Hendon (London),6296,29.2837,0.4706,2.1839,0.4670,0.3262,0.2525,0.2321,0.2481,0.2651,0.9978,51.5944,-0.2400,Driver and Vehicle Standards Agency,Driving Test Centre Hendon,"3 Aviation Drive, Beaufort Park",Hendon,,NW9 5TZ
2058,Wrexham,2720,12.6512,0.4827,2.1423,0.4526,0.2757,0.2676,0.2250,0.2393,0.2632,0.9952,53.0491,-3.0143,Ground Floor,1 Birchall House,Wrexham Technology Park,,Wrexham,LL13 7YP
2078,Southall (London),2580,12.0000,0.4101,2.3306,0.4171,0.3093,0.2337,0.2326,0.2752,0.2535,0.9950,51.5254,-0.3649,Driver and Vehicle Standards Agency,Driving Test Centre Southall,295 Allenby Road,Southall,,UB1 2HD
2098,Wolverhampton,8702,40.4744,0.3314,2.5493,0.3899,0.3256,0.2605,0.2488,0.2318,0.2486,0.9897,52.5636,-2.1022,Spring Road,Spring Road Industrial Estate,Ettingshall,Wolverhampton,,WV4 6JX
3459,Ashfield,5849,27.2047,0.5322,1.9113,0.5331,0.3072,0.2535,0.2411,0.2399,0.2588,0.9933,53.1242,-1.2368,Driver and Vehicle Standards Agency,Driving Test Centre Ashfield,"Ground Floor, Sherwood House",Off Coxmoor Road,,NG17 5LA
3499,Wakefield,5254,24.4372,0.5042,2.2172,0.4675,0.2977,0.2579,0.2448,0.2250,0.2674,0.9951,53.6841,-1.5448,Driver and Vehicle Standards Agency,Driving Test Centre Wakefield,Mothers Way Silkwood Park,,,WF5 9TR
3579,West Didsbury (Manchester),9859,45.8558,0.5170,2.1135,0.4958,0.3060,0.2417,0.2355,0.2571,0.2636,0.9980,53.4248,-2.2579,Driver and Vehicle Standards Agency,Driving Test Centre West Didsbury,"Ground Floor Unit 11, Christie Park",West Didsbury,,M21 7QY
3580,Knaresborough,2746,12.7721,0.5783,2.0466,0.5302,0.2739,0.2414,0.2400,0.2498,0.2669,0.9982,54.0013,-1.4440,Driver and Vehicle Standards Agency,Driving Test Centre Knaresborough,"Ground Floor Unit 8, Grimbald Crag Court","St James Business Park, Knaresborough",,HG5 8QB
3619,Gillingham,6672,31.0326,0.5767,1.9182,0.5622,0.3291,0.2463,0.2383,0.2392,0.2656,0.9894,51.3625,0.5795,Driver and Vehicle Standards Agency,Driving Test Centre Gillingham,"Unit 1, Astra Park, Courteney Road",Gillingham,,ME8 0EZ
3659,Dorchester,2872,13.3581,0.6393,1.7114,0.6058,0.3308,0.2650,0.2218,0.2423,0.2636,0.9927,50.7142,-2.4687,66 Peverell Avenue West,Poundbury,Dorchester,Dorset,,DT1 3SU
3660,Merthyr Tydfil,1711,7.9581,0.4676,1.8510,0.5354,0.3390,0.2455,0.2244,0.2607,0.2630,0.9936,51.7201,-3.3556,Merthyr Industrial Park,,Pentrebach,Merthyr Tydfil,,CF48 4DR
3679,Ayr,1581,7.3535,0.5509,1.9456,0.4915,0.2910,0.2979,0.1999,0.2416,0.2460,0.9855,55.4820,-4.6029,Driver and Vehicle Standards Agency,Driving Test Centre Ayr MPTC,"40 Boundary Road, Heathfield Industrial Estate",Ayr,,KA8 9DJ
3699,Uxbridge (London),3871,18.0047,0.4640,1.9749,0.5004,0.3239,0.2650,0.2353,0.2436,0.2534,0.9974,51.5410,-0.4730,Driver and Vehicle Standards Agency,"Unit 7, Trade City Business Park",Off Cowley Mill Road,UXBRIDGE,,UB8 2DB
3715,Bredbury (Manchester),5183,24.1070,0.5404,2.0164,0.5269,0.3118,0.2582,0.2377,0.2429,0.2560,0.9948,53.4293,-2.1241,Driver and Vehicle Standards Agency,Driving Test Centre Bredbury MPTC,Linguard Lane,"Bredbury, Stockport",,SK6 2QT
3717,Durham,5307,24.6837,0.5003,2.0045,0.4963,0.3152,0.2591,0.2391,0.2338,0.2614,0.9934,54.7471,-1.6098,1st Floor Enna House,Whitfield Court,St John's Road,Meadowfield Durham,,DH7 8XL
3721,Taunton,3096,14.4000,0.5468,1.7833,0.5620,0.2497,0.3320,0.1886,0.2125,0.2616,0.9948,51.0279,-3.0803,Driver and Vehicle Standards Agency,Driving Test Centre Taunton MPTC,"Unit L2, Off Venture Way Crown Industrial Estate",,,TA2 8RX
3742,Bradford (Thornbury),3178,14.7814,0.5208,2.0170,0.5050,0.3392,0.2473,0.2313,0.2061,0.3143,0.9991,53.7980,-1.7052,Unit E,The Courtyard,"Midpoint, Thornbury",Bradford,,BD3 7AY
3782,Greenham,2936,13.6558,0.4762,1.9254,0.5167,0.2929,0.2612,0.1737,0.1911,0.3723,0.9983,51.3770,-1.2909,Driver and Vehicle Standards Agency,Off Buckner Croke Way,Ventre West Business Park,"New Greenham Park, Newbury",,RG19 6HX
3802,Dundee,3688,17.1535,0.6220,1.7736,0.5697,0.2874,0.2530,0.2286,0.2473,0.2660,0.9948,56.4778,-3.0051,Driving Test Centre Dundee,Block 23B Kilspindie Place,Dunsinane Industrial Estate,Dundee,,DD2 3QH
3884,Louth,414,1.9256,0.5749,1.9420,0.5531,0.2585,0.2150,0.2947,0.2222,0.2633,0.9952,53.3636,0.0155,Driver and Vehicle Standards Agency,Driving Test Centre Louth,Meridian Leisure Centre,"Wood Lane, Louth",,LN11 8RS
3965,Irvine,3891,18.0977,0.4958,2.1154,0.4667,0.3272,0.2606,0.2439,0.2359,0.2539,0.9943,55.6022,-4.6378,Driver and Vehicle Standards Agency,Irvine Driving Test Centre,"Century Court, Riverside Business Park",,,KA11 5DJ
3985,Barry,941,4.3767,0.5569,1.8055,0.5739,0.3294,0.2582,0.2465,0.2444,0.2465,0.9957,51.3997,-3.2792,unit No 16 Business Service Centre,Hood Road,Innovation Quarter,The Waterfront,Vale Of Glamorgan,CF62 5QN
4045,Trowbridge,1633,7.5953,0.4899,1.8677,0.5456,0.2645,0.2823,0.1984,0.2431,0.2621,0.9859,51.3139,-2.2023,Longfield Community Centre,Weavers Drive,Trowbridge,,,BA14 7DZ
4225,Warrington,3198,14.8744,0.5444,1.9024,0.5410,0.3402,0.2552,0.2473,0.2448,0.2508,0.9981,53.4103,-2.5792,Warrington Borough Council Orford Day Centre,Festival Avenue,Warrington,Cheshire,,WA2 9EP
4305,Southend-on-Sea,2569,11.9488,0.5080,1.9587,0.5380,0.3207,0.2546,0.2460,0.2538,0.2421,0.9965,51.5486,0.7088,The Tickfield Centre,Tickfield Industrial Estate,Tickfield Ave,SOUTHEND ON SEA,,SS2 6LL
4505,Grangemouth,2992,13.9163,0.4930,2.1277,0.4706,0.3322,0.2637,0.2410,0.2423,0.2440,0.9910,56.0179,-3.7282,Unit 7,Grangemouth Business Centre,3 Roseland Hall,Grangemouth,,FK3 8WJ
4585,Cardiff (Llanishen),8886,41.3302,0.5348,2.0110,0.5150,0.3241,0.2519,0.2444,0.2439,0.2550,0.9952,51.5225,-3.1903,Thornbury House,Unit 11 Lambourne Crescent,Cardiff business Park,Cardiff,,CF14 5GF
4825,Nottingham (Chilwell),5031,23.4000,0.4061,2.1542,0.4603,0.3061,0.2437,0.2415,0.2415,0.2642,0.9909,52.9043,-1.2389,"Unit 24, Eldon Business Park",Eldon Road,Beeston,NOTTINGHAM,,NG9 6DZ
5165,East Kilbride,2278,10.5953,0.4543,2.1703,0.4754,0.2129,0.0764,0.1629,0.3406,0.4183,0.9982,55.7663,-4.1624,Driving Test Centre East Kilbride,John Wright Sports Centre,Calderwood Road,East Kilbride,,G74 3EU
5585,Bishopbriggs,4060,18.8837,0.5273,2.3633,0.4470,0.2985,0.2645,0.2382,0.2310,0.2621,0.9958,55.9233,-4.1990,Driver and Vehicle Standards Agency,Crosshill Road,Bishopbriggs,Glasgow,,G64 2QA
5685,Derby (Alvaston),5011,23.3070,0.4895,1.9774,0.5195,0.3075,0.2630,0.2433,0.2419,0.2489,0.9970,52.9018,-1.4311,Driver and Vehicle Standards Agency,Off Belmore Way,Alvaston,Derby,,DE21 7AY
5705,Grantham (Somerby),3699,17.2047,0.5331,1.9970,0.5085,0.3160,0.2539,0.2474,0.2403,0.2555,0.9970,52.9019,-0.5873,Driver and Vehicle Standards Agency,Driving Test Centre Grantham,Spitalgate Airfield,Blue Harbour,Grantham,NG31 7TX
5785,Montrose,414,1.9256,0.7053,1.4396,0.7053,0.3188,0.2391,0.2319,0.2729,0.2560,1.0000,56.7230,-2.4661,Driving Test Centre Montrose,Driver and Vehicle Standards Agency,Montrose Fire Station,10 Garrison Road,,DD10 8EE
5805,Wick,164,0.7628,0.6220,1.8171,0.5610,0.2805,0.2683,0.2012,0.2744,0.2561,1.0000,58.4513,-3.0907,Driver and Vehicle Standards Agency,Driving Test Centre Wick,Airport Industrial Estate,Wick,Caithness,KW1 4QS
5845,Kendal (Oxenholme Road),1321,6.1442,0.6715,1.8486,0.5617,0.2967,0.3028,0.1893,0.2263,0.2755,0.9939,54.3117,-2.7340,Driver and Vehicle Standards Agency,Driving Test Centre Kendal,"Unit 2, Wayfaring House","Murley Moss, Oxenholme Road",,LA9 7RL
6205,Wellingborough,780,3.6279,0.5372,2.0077,0.5308,0.2103,0.4269,0.1974,0.1603,0.2141,0.9987,52.3031,-0.7242,Glamis Hall,Goldsmith Road,Wellingborough,Northamptonshire,,NN8 3RU
6305,Bristol (Avonmouth),5936,27.6093,0.5612,1.9473,0.5246,0.3004,0.2635,0.2463,0.2360,0.2522,0.9980,51.5159,-2.6851,Driver and Vehicle Standards Agency,Driving Test Centre Bristol Avonmouth,"Unit M6, Cabot Park",Merebank Road,"Avonmouth, Bristol",BS11 8AQ
6446,Tottenham,5109,23.7628,0.4903,2.3686,0.4275,0.3200,0.2470,0.2317,0.2372,0.2817,0.9977,51.6077,-0.0815,Driver and Vehicle Standards Agency,Driving Test Centre Tottenham,Annex Building,"Selby Centre, Selby Road","Tottenham, London",N17 8JL
6505,Chadderton,7036,32.7256,0.4450,2.3368,0.4298,0.3147,0.2578,0.2389,0.2332,0.2642,0.9942,53.5321,-2.1712,Driver and Vehicle Standards Agency,Broadgate,"Oldham Broadway Business Park,",Chadderton,OLDHAM,OL9 9XA
7685,Dunfermline (Vine),2307,10.7302,0.4820,2.0889,0.4712,0.2553,0.2570,0.2458,0.2293,0.2653,0.9974,56.0740,-3.4353,Driver and Vehicle Standards Agency,Driving Test Centre Dunfermline,Vine Conference Centre,Dunfermline,,KY11 4JU
7805,Bromley (London),5565,25.8837,0.5150,2.1360,0.4832,0.3508,0.2464,0.2358,0.2627,0.2527,0.9975,51.4204,0.0201,121-123 Burnt Ash Lane,,,BROMLEY,,BR1 5AB
9628,High Wycombe,1155,5.3721,0.5273,2.0693,0.4528,0.3160,0.2502,0.2390,0.2355,0.2597,0.9844,51.6122,-0.7049,Driver and Vehicle Standards Agency,Driving Test Centre High Wycombe,"Regus, 1 Ashton Court",Kingsmead Business Park,High Wycombe,HP11 1 JU
